{
 "type": "FeatureCollection",
 "features": [
  {
   "type": "Feature",
   "id": 693,
   "geometry": {
    "type": "Point",
    "coordinates": [
     -77.16462967696448,
     39.11993515031108
    ]
   },
   "properties": {
    "NAME": "Shady Grove",
    "ADDRESS": "15903 SOMERVILLE DRIVE, DERWOOD, MD",
    "LINE": "red",
    "TRAININFO_URL": "https://www.wmata.com/js/nexttrain/nexttrain.html#A15|Shady%20Grove",
    "WEB_URL": "https://www.wmata.com/rider-guide/stations/shady-grove.cfm",
    "GIS_ID": "MetroStnFullPt_1",
    "MAR_ID": null,
    "GLOBALID": "{CB2ED552-145A-48D5-B75A-381A26F2665B}",
    "OBJECTID": 693,
    "CREATED": 1669840377000,
    "EDITED": 1669840377000,
    "SE_ANNO_CAD_DATA": null
   }
  },
  {
   "type": "Feature",
   "id": 702,
   "geometry": {
    "type": "Point",
    "coordinates": [
     -77.09539640501809,
     38.8867126201147
    ]
   },
   "properties": {
    "NAME": "Clarendon",
    "ADDRESS": "3100 WILSON BLVD, ARLINGTON, VA",
    "LINE": "orange, silver",
    "TRAININFO_URL": "https://www.wmata.com/js/nexttrain/nexttrain.html#K02|Clarendon",
    "WEB_URL": "https://www.wmata.com/rider-guide/stations/clarendon.cfm",
    "GIS_ID": "MetroStnFullPt_10",
    "MAR_ID": null,
    "GLOBALID": "{6D9051DA-B64E-47A9-8EB3-D5A224D3AA21}",
    "OBJECTID": 702,
    "CREATED": 1669840377000,
    "EDITED": 1669840377000,
    "SE_ANNO_CAD_DATA": null
   }
  },
  {
   "type": "Feature",
   "id": 703,
   "geometry": {
    "type": "Point",
    "coordinates": [
     -77.15688534574227,
     38.88596094496427
    ]
   },
   "properties": {
    "NAME": "East Falls Church",
    "ADDRESS": "2001 N. SYCAMORE ST., ARLINGTON, VA",
    "LINE": "orange, silver",
    "TRAININFO_URL": "https://www.wmata.com/js/nexttrain/nexttrain.html#K05|East Falls Church",
    "WEB_URL": "https://www.wmata.com/rider-guide/stations/e-falls-church.cfm",
    "GIS_ID": "MetroStnFullPt_11",
    "MAR_ID": null,
    "GLOBALID": "{1EB4FFA9-A362-4BB0-9BAD-DF185BA1DA1B}",
    "OBJECTID": 703,
    "CREATED": 1669840377000,
    "EDITED": 1669840377000,
    "SE_ANNO_CAD_DATA": null
   }
  },
  {
   "type": "Feature",
   "id": 704,
   "geometry": {
    "type": "Point",
    "coordinates": [
     -77.10297960302945,
     38.88337393188724
    ]
   },
   "properties": {
    "NAME": "Virginia Square-GMU",
    "ADDRESS": "3600 FAIRFAX DRIVE, ARLINGTON, VA",
    "LINE": "orange, silver",
    "TRAININFO_URL": "https://www.wmata.com/js/nexttrain/nexttrain.html#K03|Virginia%20Square-GMU",
    "WEB_URL": "https://www.wmata.com/rider-guide/stations/virginia-sq.cfm",
    "GIS_ID": "MetroStnFullPt_12",
    "MAR_ID": null,
    "GLOBALID": "{D5FEE399-7F0A-4FE2-8BE7-464D6C1F03EC}",
    "OBJECTID": 704,
    "CREATED": 1669840377000,
    "EDITED": 1669840377000,
    "SE_ANNO_CAD_DATA": null
   }
  },
  {
   "type": "Feature",
   "id": 705,
   "geometry": {
    "type": "Point",
    "coordinates": [
     -77.11317114697351,
     38.88219065327559
    ]
   },
   "properties": {
    "NAME": "Ballston-MU",
    "ADDRESS": "4230 FAIRFAX DRIVE, ARLINGTON, VA",
    "LINE": "orange, silver",
    "TRAININFO_URL": "https://www.wmata.com/js/nexttrain/nexttrain.html#K04|Ballston-MU",
    "WEB_URL": "https://www.wmata.com/rider-guide/stations/ballston.cfm",
    "GIS_ID": "MetroStnFullPt_13",
    "MAR_ID": null,
    "GLOBALID": "{F2D9DE79-73EB-4508-9806-B79A473C7FF3}",
    "OBJECTID": 705,
    "CREATED": 1669840377000,
    "EDITED": 1669840377000,
    "SE_ANNO_CAD_DATA": null
   }
  },
  {
   "type": "Feature",
   "id": 706,
   "geometry": {
    "type": "Point",
    "coordinates": [
     -77.0406977056811,
     38.901320680204925
    ]
   },
   "properties": {
    "NAME": "Farragut West",
    "ADDRESS": "841 17TH STREET NW, WASHINGTON, DC",
    "LINE": "blue, orange, silver",
    "TRAININFO_URL": "https://www.wmata.com/js/nexttrain/nexttrain.html#C03|Farragut West",
    "WEB_URL": "https://www.wmata.com/rider-guide/stations/farragut-west.cfm",
    "GIS_ID": "MetroStnFullPt_14",
    "MAR_ID": 316429,
    "GLOBALID": "{25C55138-1B94-4DF5-A6B1-03D1ED0EE428}",
    "OBJECTID": 706,
    "CREATED": 1669840377000,
    "EDITED": 1669840377000,
    "SE_ANNO_CAD_DATA": null
   }
  },
  {
   "type": "Feature",
   "id": 707,
   "geometry": {
    "type": "Point",
    "coordinates": [
     -77.03970311757885,
     38.90320973271147
    ]
   },
   "properties": {
    "NAME": "Farragut North",
    "ADDRESS": "1720 L STREET NW, WASHINGTON, DC",
    "LINE": "red",
    "TRAININFO_URL": "https://www.wmata.com/js/nexttrain/nexttrain.html#A02|Farragut North",
    "WEB_URL": "https://www.wmata.com/rider-guide/stations/farragut-north.cfm",
    "GIS_ID": "MetroStnFullPt_15",
    "MAR_ID": 310416,
    "GLOBALID": "{C4D34D29-F8A8-4859-BB97-1EE2A2A7BCB1}",
    "OBJECTID": 707,
    "CREATED": 1669840377000,
    "EDITED": 1669840377000,
    "SE_ANNO_CAD_DATA": null
   }
  },
  {
   "type": "Feature",
   "id": 708,
   "geometry": {
    "type": "Point",
    "coordinates": [
     -77.05242031642709,
     38.92509292748009
    ]
   },
   "properties": {
    "NAME": "Woodley Park-Zoo/Adams Morgan",
    "ADDRESS": "2622 CONNECTICUT AVENUE NW, WASHINGTON, DC",
    "LINE": "red",
    "TRAININFO_URL": "https://www.wmata.com/js/nexttrain/nexttrain.html#A04|Woodley%20Park-Zoo/Adams%20Morgan",
    "WEB_URL": "https://www.wmata.com/rider-guide/stations/woodley-park.cfm",
    "GIS_ID": "MetroStnFullPt_16",
    "MAR_ID": 316421,
    "GLOBALID": "{CBBC7160-559F-4764-BB31-D5F1BD37E2DB}",
    "OBJECTID": 708,
    "CREATED": 1669840377000,
    "EDITED": 1669840377000,
    "SE_ANNO_CAD_DATA": null
   }
  },
  {
   "type": "Feature",
   "id": 709,
   "geometry": {
    "type": "Point",
    "coordinates": [
     -77.02191076776728,
     38.8848455113141
    ]
   },
   "properties": {
    "NAME": "L'Enfant Plaza",
    "ADDRESS": "600 MARYLAND AVENUE SW, WASHINGTON, DC",
    "LINE": "green, yellow, orange, blue, silver",
    "TRAININFO_URL": "https://www.wmata.com/js/nexttrain/nexttrain.html#F03,D03|L'Enfant Plaza",
    "WEB_URL": "https://www.wmata.com/rider-guide/stations/lenfant-plaza.cfm",
    "GIS_ID": "MetroStnFullPt_17",
    "MAR_ID": 316347,
    "GLOBALID": "{5FF1D8F8-682F-4C3F-A7E1-AFDBFA297572}",
    "OBJECTID": 709,
    "CREATED": 1669840377000,
    "EDITED": 1710882695000,
    "SE_ANNO_CAD_DATA": null
   }
  },
  {
   "type": "Feature",
   "id": 710,
   "geometry": {
    "type": "Point",
    "coordinates": [
     -77.02806852006908,
     38.88802648586597
    ]
   },
   "properties": {
    "NAME": "Smithsonian",
    "ADDRESS": "1201 JEFFERSON DRIVE SW, WASHINGTON, DC",
    "LINE": "blue, orange, silver",
    "TRAININFO_URL": "https://www.wmata.com/js/nexttrain/nexttrain.html#D02|Smithsonian",
    "WEB_URL": "https://www.wmata.com/rider-guide/stations/smithsonian.cfm",
    "GIS_ID": "MetroStnFullPt_18",
    "MAR_ID": 310412,
    "GLOBALID": "{154957A0-B0D8-4A64-B67A-4C2362855975}",
    "OBJECTID": 710,
    "CREATED": 1669840377000,
    "EDITED": 1669840377000,
    "SE_ANNO_CAD_DATA": null
   }
  },
  {
   "type": "Feature",
   "id": 711,
   "geometry": {
    "type": "Point",
    "coordinates": [
     -77.02191667221093,
     38.89367300870453
    ]
   },
   "properties": {
    "NAME": "Archives-Navy Memorial-Penn Quarter",
    "ADDRESS": "300 7TH STREET NW, WASHINGTON, DC",
    "LINE": "green, yellow",
    "TRAININFO_URL": "https://www.wmata.com/js/nexttrain/nexttrain.html#F02|Archives-Navy Memorial-Penn Quarter",
    "WEB_URL": "https://www.wmata.com/rider-guide/stations/archives.cfm",
    "GIS_ID": "MetroStnFullPt_19",
    "MAR_ID": 316356,
    "GLOBALID": "{DAE064AB-7AEB-43F8-A7F8-2EAAE5DF96FC}",
    "OBJECTID": 711,
    "CREATED": 1669840377000,
    "EDITED": 1669840377000,
    "SE_ANNO_CAD_DATA": null
   }
  },
  {
   "type": "Feature",
   "id": 694,
   "geometry": {
    "type": "Point",
    "coordinates": [
     -77.14612767389842,
     39.08432942644285
    ]
   },
   "properties": {
    "NAME": "Rockville",
    "ADDRESS": "251 HUNGERFORD DRIVE, ROCKVILLE, MD",
    "LINE": "red",
    "TRAININFO_URL": "https://www.wmata.com/js/nexttrain/nexttrain.html#A14|Rockville",
    "WEB_URL": "https://www.wmata.com/rider-guide/stations/rockville.cfm",
    "GIS_ID": "MetroStnFullPt_2",
    "MAR_ID": null,
    "GLOBALID": "{64FD589C-0CAA-4E52-BCF4-D3E26D2E60F4}",
    "OBJECTID": 694,
    "CREATED": 1669840377000,
    "EDITED": 1669840377000,
    "SE_ANNO_CAD_DATA": null
   }
  },
  {
   "type": "Feature",
   "id": 712,
   "geometry": {
    "type": "Point",
    "coordinates": [
     -77.01750749059426,
     38.876469648772314
    ]
   },
   "properties": {
    "NAME": "Waterfront",
    "ADDRESS": "399 M STREET SW, WASHINGTON, DC",
    "LINE": "green",
    "TRAININFO_URL": "https://www.wmata.com/js/nexttrain/nexttrain.html#F04|Waterfront",
    "WEB_URL": "https://www.wmata.com/rider-guide/stations/waterfront.cfm",
    "GIS_ID": "MetroStnFullPt_20",
    "MAR_ID": 294877,
    "GLOBALID": "{FC35DD4F-8435-44B3-A84D-20018D1B1890}",
    "OBJECTID": 712,
    "CREATED": 1669840377000,
    "EDITED": 1669840377000,
    "SE_ANNO_CAD_DATA": null
   }
  },
  {
   "type": "Feature",
   "id": 713,
   "geometry": {
    "type": "Point",
    "coordinates": [
     -77.04404458303222,
     38.853424162228634
    ]
   },
   "properties": {
    "NAME": "Ronald Reagan Washington National Airport",
    "ADDRESS": "2400 S. SMITH BLVD., ARLINGTON, VA",
    "LINE": "blue, yellow",
    "TRAININFO_URL": "https://www.wmata.com/js/nexttrain/nexttrain.html#C10|Ronald%20Reagan%20Washington%20National%20Airport",
    "WEB_URL": "https://www.wmata.com/rider-guide/stations/national-airport.cfm",
    "GIS_ID": "MetroStnFullPt_21",
    "MAR_ID": null,
    "GLOBALID": "{33A2C8E0-A884-4755-ADC4-0A4333DA4EE9}",
    "OBJECTID": 713,
    "CREATED": 1669840377000,
    "EDITED": 1669840377000,
    "SE_ANNO_CAD_DATA": null
   }
  },
  {
   "type": "Feature",
   "id": 714,
   "geometry": {
    "type": "Point",
    "coordinates": [
     -77.12911383552941,
     38.79931543416227
    ]
   },
   "properties": {
    "NAME": "Van Dorn Street",
    "ADDRESS": "5690 EISENHOWER AVENUE, ALEXANDRIA, VA",
    "LINE": "blue",
    "TRAININFO_URL": "https://www.wmata.com/js/nexttrain/nexttrain.html#J02|Van%20Dorn%20Street",
    "WEB_URL": "https://www.wmata.com/rider-guide/stations/van-dorn-st.cfm",
    "GIS_ID": "MetroStnFullPt_22",
    "MAR_ID": null,
    "GLOBALID": "{4FC2A150-AEF2-4F63-AEFD-EA829A0FE261}",
    "OBJECTID": 714,
    "CREATED": 1669840377000,
    "EDITED": 1710876422000,
    "SE_ANNO_CAD_DATA": null
   }
  },
  {
   "type": "Feature",
   "id": 715,
   "geometry": {
    "type": "Point",
    "coordinates": [
     -77.16797250233967,
     38.7665296467617
    ]
   },
   "properties": {
    "NAME": "Franconia-Springfield",
    "ADDRESS": "6880 FRONTIER DRIVE, SPRINGFIELD, VA",
    "LINE": "blue",
    "TRAININFO_URL": "https://www.wmata.com/js/nexttrain/nexttrain.html#J03|Franconia-Springfield",
    "WEB_URL": "https://www.wmata.com/rider-guide/stations/franconia-sprngfld.cfm",
    "GIS_ID": "MetroStnFullPt_23",
    "MAR_ID": null,
    "GLOBALID": "{F4FE7EB0-D678-4608-9BF9-099E4872B7B1}",
    "OBJECTID": 715,
    "CREATED": 1669840377000,
    "EDITED": 1710876422000,
    "SE_ANNO_CAD_DATA": null
   }
  },
  {
   "type": "Feature",
   "id": 716,
   "geometry": {
    "type": "Point",
    "coordinates": [
     -77.0158704987507,
     38.88508013881906
    ]
   },
   "properties": {
    "NAME": "Federal Center SW",
    "ADDRESS": "401 3RD STREET SW, WASHINGTON, DC",
    "LINE": "blue, orange, silver",
    "TRAININFO_URL": "https://www.wmata.com/js/nexttrain/nexttrain.html#D04|Federal Center SW",
    "WEB_URL": "https://www.wmata.com/rider-guide/stations/federal-ctr-sw.cfm",
    "GIS_ID": "MetroStnFullPt_24",
    "MAR_ID": 300374,
    "GLOBALID": "{8C83D280-29AD-4512-B35D-608A5DD7E6AD}",
    "OBJECTID": 716,
    "CREATED": 1669840377000,
    "EDITED": 1669840377000,
    "SE_ANNO_CAD_DATA": null
   }
  },
  {
   "type": "Feature",
   "id": 717,
   "geometry": {
    "type": "Point",
    "coordinates": [
     -77.01664123934285,
     38.8960981035311
    ]
   },
   "properties": {
    "NAME": "Judiciary Square",
    "ADDRESS": "435 4TH STREET NW, WASHINGTON, DC",
    "LINE": "red",
    "TRAININFO_URL": "https://www.wmata.com/js/nexttrain/nexttrain.html#B02|Judiciary Square",
    "WEB_URL": "https://www.wmata.com/rider-guide/stations/judiciary-sq.cfm",
    "GIS_ID": "MetroStnFullPt_25",
    "MAR_ID": 310427,
    "GLOBALID": "{F0E2F0A6-BB95-4123-9E16-F911E1DD68A7}",
    "OBJECTID": 717,
    "CREATED": 1669840377000,
    "EDITED": 1669840377000,
    "SE_ANNO_CAD_DATA": null
   }
  },
  {
   "type": "Feature",
   "id": 718,
   "geometry": {
    "type": "Point",
    "coordinates": [
     -77.0051416983916,
     38.88507028499647
    ]
   },
   "properties": {
    "NAME": "Capitol South",
    "ADDRESS": "355 1ST STREET SE, WASHINGTON, DC",
    "LINE": "blue, orange, silver",
    "TRAININFO_URL": "https://www.wmata.com/js/nexttrain/nexttrain.html#D05|Capitol South",
    "WEB_URL": "https://www.wmata.com/rider-guide/stations/capitol-south.cfm",
    "GIS_ID": "MetroStnFullPt_26",
    "MAR_ID": 294860,
    "GLOBALID": "{5335D849-DF0E-48BE-886E-6144FD0BE744}",
    "OBJECTID": 718,
    "CREATED": 1669840377000,
    "EDITED": 1669840377000,
    "SE_ANNO_CAD_DATA": null
   }
  },
  {
   "type": "Feature",
   "id": 719,
   "geometry": {
    "type": "Point",
    "coordinates": [
     -77.02808028359519,
     38.89832225910372
    ]
   },
   "properties": {
    "NAME": "Metro Center",
    "ADDRESS": "607 13TH STREET NW, WASHINGTON, DC",
    "LINE": "red, blue, orange, silver",
    "TRAININFO_URL": "https://www.wmata.com/js/nexttrain/nexttrain.html#A01,C01|Metro Center",
    "WEB_URL": "https://www.wmata.com/rider-guide/stations/metro-center.cfm",
    "GIS_ID": "MetroStnFullPt_27",
    "MAR_ID": 294812,
    "GLOBALID": "{B94FA0C9-F46B-4E54-9C8C-BD8AC05085A1}",
    "OBJECTID": 719,
    "CREATED": 1669840377000,
    "EDITED": 1669840377000,
    "SE_ANNO_CAD_DATA": null
   }
  },
  {
   "type": "Feature",
   "id": 720,
   "geometry": {
    "type": "Point",
    "coordinates": [
     -77.02191767491948,
     38.89832459591712
    ]
   },
   "properties": {
    "NAME": "Gallery Pl-Chinatown",
    "ADDRESS": "625 9TH STREET NW, WASHINGTON, DC",
    "LINE": "red, green, yellow",
    "TRAININFO_URL": "https://www.wmata.com/js/nexttrain/nexttrain.html#B01,F01|Gallery Pl-Chinatown",
    "WEB_URL": "https://www.wmata.com/rider-guide/stations/gallery-place.cfm",
    "GIS_ID": "MetroStnFullPt_28",
    "MAR_ID": 310428,
    "GLOBALID": "{1EEA49F9-4E6A-4887-BE86-AD9BD23F079E}",
    "OBJECTID": 720,
    "CREATED": 1669840377000,
    "EDITED": 1669840377000,
    "SE_ANNO_CAD_DATA": null
   }
  },
  {
   "type": "Feature",
   "id": 721,
   "geometry": {
    "type": "Point",
    "coordinates": [
     -77.02191666537722,
     38.90644460270957
    ]
   },
   "properties": {
    "NAME": "Mt Vernon Sq 7th St-Convention Center",
    "ADDRESS": "700 M STREET NW, WASHINGTON, DC",
    "LINE": "green, yellow",
    "TRAININFO_URL": "https://www.wmata.com/js/nexttrain/nexttrain.html#E01|Mt Vernon Sq 7th St-Convention Center",
    "WEB_URL": "https://www.wmata.com/rider-guide/stations/mt-vernon-sq.cfm",
    "GIS_ID": "MetroStnFullPt_29",
    "MAR_ID": 294834,
    "GLOBALID": "{1448F029-C1AB-4154-9D5D-C32ACAF7F65D}",
    "OBJECTID": 721,
    "CREATED": 1669840377000,
    "EDITED": 1669840377000,
    "SE_ANNO_CAD_DATA": null
   }
  },
  {
   "type": "Feature",
   "id": 695,
   "geometry": {
    "type": "Point",
    "coordinates": [
     -77.12082027714577,
     39.062475467151565
    ]
   },
   "properties": {
    "NAME": "Twinbrook",
    "ADDRESS": "1600 CHAPMAN AVENUE, ROCKVILLE, MD",
    "LINE": "red",
    "TRAININFO_URL": "https://www.wmata.com/js/nexttrain/nexttrain.html#A13|Twinbrook",
    "WEB_URL": "https://www.wmata.com/rider-guide/stations/twinbrook.cfm",
    "GIS_ID": "MetroStnFullPt_3",
    "MAR_ID": null,
    "GLOBALID": "{6BF87597-FF6A-4653-98C8-4180660FAAAA}",
    "OBJECTID": 695,
    "CREATED": 1669840377000,
    "EDITED": 1669840377000,
    "SE_ANNO_CAD_DATA": null
   }
  },
  {
   "type": "Feature",
   "id": 722,
   "geometry": {
    "type": "Point",
    "coordinates": [
     -77.02749818032264,
     38.91701018892413
    ]
   },
   "properties": {
    "NAME": "U Street/African-Amer Civil War Memorial/Cardozo",
    "ADDRESS": "1260 U STREET NW, WASHINGTON, DC",
    "LINE": "green",
    "TRAININFO_URL": "https://www.wmata.com/js/nexttrain/nexttrain.html#E03|U%20Street/African-Amer%20Civil%20War%20Memorial/Cardozo",
    "WEB_URL": "https://www.wmata.com/rider-guide/stations/u-street.cfm",
    "GIS_ID": "MetroStnFullPt_30",
    "MAR_ID": 316436,
    "GLOBALID": "{2C7C68A8-E14F-40FF-A339-CB49D16C7563}",
    "OBJECTID": 722,
    "CREATED": 1669840377000,
    "EDITED": 1710876422000,
    "SE_ANNO_CAD_DATA": null
   }
  },
  {
   "type": "Feature",
   "id": 723,
   "geometry": {
    "type": "Point",
    "coordinates": [
     -77.00741657214631,
     38.89777382578452
    ]
   },
   "properties": {
    "NAME": "Union Station",
    "ADDRESS": "605 1ST STREET NE, WASHINGTON, DC",
    "LINE": "red",
    "TRAININFO_URL": "https://www.wmata.com/js/nexttrain/nexttrain.html#B03|Union%20Station",
    "WEB_URL": "https://www.wmata.com/rider-guide/stations/union-station.cfm",
    "GIS_ID": "MetroStnFullPt_31",
    "MAR_ID": 316417,
    "GLOBALID": "{A3853FD5-F9E1-4A25-98AE-DA389F542437}",
    "OBJECTID": 723,
    "CREATED": 1669840377000,
    "EDITED": 1669840377000,
    "SE_ANNO_CAD_DATA": null
   }
  },
  {
   "type": "Feature",
   "id": 724,
   "geometry": {
    "type": "Point",
    "coordinates": [
     -76.98851420349799,
     38.84566547961086
    ]
   },
   "properties": {
    "NAME": "Congress Heights",
    "ADDRESS": "1300 ALABAMA AVENUE SE, WASHINGTON, DC",
    "LINE": "green",
    "TRAININFO_URL": "https://www.wmata.com/js/nexttrain/nexttrain.html#F07|Congress Heights",
    "WEB_URL": "https://www.wmata.com/rider-guide/stations/congress-hghts.cfm",
    "GIS_ID": "MetroStnFullPt_32",
    "MAR_ID": 316358,
    "GLOBALID": "{4DE0AF79-EF92-4868-BBEB-F55DDD716743}",
    "OBJECTID": 724,
    "CREATED": 1669840377000,
    "EDITED": 1669840377000,
    "SE_ANNO_CAD_DATA": null
   }
  },
  {
   "type": "Feature",
   "id": 725,
   "geometry": {
    "type": "Point",
    "coordinates": [
     -76.9562649706452,
     38.851309162659206
    ]
   },
   "properties": {
    "NAME": "Naylor Road",
    "ADDRESS": "3101 BRANCH AVENUE, TEMPLE HILLS, MD",
    "LINE": "green",
    "TRAININFO_URL": "https://www.wmata.com/js/nexttrain/nexttrain.html#F09|Naylor Road",
    "WEB_URL": "https://www.wmata.com/rider-guide/stations/naylor-rd.cfm",
    "GIS_ID": "MetroStnFullPt_33",
    "MAR_ID": null,
    "GLOBALID": "{0329428A-B723-4D00-8F98-213C4C98F79F}",
    "OBJECTID": 725,
    "CREATED": 1669840377000,
    "EDITED": 1669840377000,
    "SE_ANNO_CAD_DATA": null
   }
  },
  {
   "type": "Feature",
   "id": 726,
   "geometry": {
    "type": "Point",
    "coordinates": [
     -76.93187241210394,
     38.84397233291179
    ]
   },
   "properties": {
    "NAME": "Suitland",
    "ADDRESS": "4500 SILVER HILL ROAD, SUITLAND, MD",
    "LINE": "green",
    "TRAININFO_URL": "https://www.wmata.com/js/nexttrain/nexttrain.html#F10|Suitland",
    "WEB_URL": "https://www.wmata.com/rider-guide/stations/suitland.cfm",
    "GIS_ID": "MetroStnFullPt_34",
    "MAR_ID": null,
    "GLOBALID": "{AC0B6003-EC58-4CB9-ADC4-4D67525DBE5D}",
    "OBJECTID": 726,
    "CREATED": 1669840377000,
    "EDITED": 1669840377000,
    "SE_ANNO_CAD_DATA": null
   }
  },
  {
   "type": "Feature",
   "id": 641,
   "geometry": {
    "type": "Point",
    "coordinates": [
     -76.91146646347411,
     38.82645412403157
    ]
   },
   "properties": {
    "NAME": "Branch Ave",
    "ADDRESS": "4704 OLD SOPER ROAD, SUITLAND, MD",
    "LINE": "green",
    "TRAININFO_URL": "https://www.wmata.com/js/nexttrain/nexttrain.html#F11|Branch Ave",
    "WEB_URL": "https://www.wmata.com/rider-guide/stations/branch-ave.cfm",
    "GIS_ID": "MetroStnFullPt_35",
    "MAR_ID": null,
    "GLOBALID": "{92A8B776-C7DD-4E1A-A9BF-83DBBFE3320F}",
    "OBJECTID": 641,
    "CREATED": 1669840377000,
    "EDITED": 1669840377000,
    "SE_ANNO_CAD_DATA": null
   }
  },
  {
   "type": "Feature",
   "id": 642,
   "geometry": {
    "type": "Point",
    "coordinates": [
     -77.05366986331944,
     38.81415143523843
    ]
   },
   "properties": {
    "NAME": "Braddock Road",
    "ADDRESS": "700 N. WEST ST., ALEXANDRIA, VA",
    "LINE": "blue, yellow",
    "TRAININFO_URL": "https://www.wmata.com/js/nexttrain/nexttrain.html#C12|Braddock Road",
    "WEB_URL": "https://www.wmata.com/rider-guide/stations/braddock-rd.cfm",
    "GIS_ID": "MetroStnFullPt_36",
    "MAR_ID": null,
    "GLOBALID": "{29FC24FF-2132-4F11-9D55-00ED0AD62B0E}",
    "OBJECTID": 642,
    "CREATED": 1669840377000,
    "EDITED": 1669840377000,
    "SE_ANNO_CAD_DATA": null
   }
  },
  {
   "type": "Feature",
   "id": 643,
   "geometry": {
    "type": "Point",
    "coordinates": [
     -77.06081349956652,
     38.806593883404894
    ]
   },
   "properties": {
    "NAME": "King St-Old Town",
    "ADDRESS": "1900 KING STREET, ALEXANDRIA, VA",
    "LINE": "blue, yellow",
    "TRAININFO_URL": "https://www.wmata.com/js/nexttrain/nexttrain.html#C13|King St-Old Town",
    "WEB_URL": "https://www.wmata.com/rider-guide/stations/king-street.cfm",
    "GIS_ID": "MetroStnFullPt_37",
    "MAR_ID": null,
    "GLOBALID": "{AC34C280-68C2-473F-88C6-7178859F27F1}",
    "OBJECTID": 643,
    "CREATED": 1669840377000,
    "EDITED": 1669840377000,
    "SE_ANNO_CAD_DATA": null
   }
  },
  {
   "type": "Feature",
   "id": 644,
   "geometry": {
    "type": "Point",
    "coordinates": [
     -77.07087668309177,
     38.80043321423915
    ]
   },
   "properties": {
    "NAME": "Eisenhower Ave",
    "ADDRESS": "2400 EISENHOWER AVENUE, ALEXANDRIA, VA",
    "LINE": "yellow",
    "TRAININFO_URL": "https://www.wmata.com/js/nexttrain/nexttrain.html#C14|Eisenhower Avenue",
    "WEB_URL": "https://www.wmata.com/rider-guide/stations/eisenhower-ave.cfm",
    "GIS_ID": "MetroStnFullPt_38",
    "MAR_ID": null,
    "GLOBALID": "{C137D724-61A0-4191-A166-14CADEF67A07}",
    "OBJECTID": 644,
    "CREATED": 1669840377000,
    "EDITED": 1669840377000,
    "SE_ANNO_CAD_DATA": null
   }
  },
  {
   "type": "Feature",
   "id": 645,
   "geometry": {
    "type": "Point",
    "coordinates": [
     -77.07520808387842,
     38.79392361596811
    ]
   },
   "properties": {
    "NAME": "Huntington",
    "ADDRESS": "2701 HUNTINGTON AVENUE, ALEXANDRIA, VA",
    "LINE": "yellow",
    "TRAININFO_URL": "https://www.wmata.com/js/nexttrain/nexttrain.html#C15|Huntington",
    "WEB_URL": "https://www.wmata.com/rider-guide/stations/huntington.cfm",
    "GIS_ID": "MetroStnFullPt_39",
    "MAR_ID": null,
    "GLOBALID": "{68ACB463-D755-47C0-8907-AF039EDA5A8E}",
    "OBJECTID": 645,
    "CREATED": 1669840377000,
    "EDITED": 1669840377000,
    "SE_ANNO_CAD_DATA": null
   }
  },
  {
   "type": "Feature",
   "id": 696,
   "geometry": {
    "type": "Point",
    "coordinates": [
     -77.1128321810407,
     39.0481591702013
    ]
   },
   "properties": {
    "NAME": "North Bethesda",
    "ADDRESS": "5500 MARINELLI ROAD, ROCKVILLE, MD",
    "LINE": "red",
    "TRAININFO_URL": "https://www.wmata.com/js/nexttrain/nexttrain.html#A12|White%20Flint",
    "WEB_URL": "https://www.wmata.com/rider-guide/stations/north-bethesda.cfm",
    "GIS_ID": "MetroStnFullPt_4",
    "MAR_ID": null,
    "GLOBALID": "{385DF698-2B22-4093-B590-6858BF0EB5B6}",
    "OBJECTID": 696,
    "CREATED": 1669840377000,
    "EDITED": 1669840377000,
    "SE_ANNO_CAD_DATA": null
   }
  },
  {
   "type": "Feature",
   "id": 646,
   "geometry": {
    "type": "Point",
    "coordinates": [
     -76.9953730128321,
     38.86297089677661
    ]
   },
   "properties": {
    "NAME": "Anacostia",
    "ADDRESS": "1101 HOWARD ROAD SE, WASHINGTON, DC",
    "LINE": "green",
    "TRAININFO_URL": "https://www.wmata.com/js/nexttrain/nexttrain.html#F06|Anacostia",
    "WEB_URL": "https://www.wmata.com/rider-guide/stations/anacostia.cfm",
    "GIS_ID": "MetroStnFullPt_40",
    "MAR_ID": 294866,
    "GLOBALID": "{9F18B9CF-3BD8-4F44-8E93-945E4094B4BF}",
    "OBJECTID": 646,
    "CREATED": 1669840377000,
    "EDITED": 1669840377000,
    "SE_ANNO_CAD_DATA": null
   }
  },
  {
   "type": "Feature",
   "id": 647,
   "geometry": {
    "type": "Point",
    "coordinates": [
     -76.99600340230812,
     38.88463004516522
    ]
   },
   "properties": {
    "NAME": "Eastern Market",
    "ADDRESS": "725 PENNSYLVANIA AVENUE SE, WASHINGTON, DC",
    "LINE": "blue, orange, silver",
    "TRAININFO_URL": "https://www.wmata.com/js/nexttrain/nexttrain.html#D06|Eastern Market",
    "WEB_URL": "https://www.wmata.com/rider-guide/stations/eastern-market.cfm",
    "GIS_ID": "MetroStnFullPt_41",
    "MAR_ID": 316432,
    "GLOBALID": "{1DC8CD5F-3F86-4D31-BF06-CF5BACDD10D8}",
    "OBJECTID": 647,
    "CREATED": 1669840377000,
    "EDITED": 1669840377000,
    "SE_ANNO_CAD_DATA": null
   }
  },
  {
   "type": "Feature",
   "id": 648,
   "geometry": {
    "type": "Point",
    "coordinates": [
     -76.9854975917707,
     38.88127105766857
    ]
   },
   "properties": {
    "NAME": "Potomac Ave",
    "ADDRESS": "1400 POTOMAC AVENUE SE, WASHINGTON, DC",
    "LINE": "blue, orange, silver",
    "TRAININFO_URL": "https://www.wmata.com/js/nexttrain/nexttrain.html#D07|Potomac Ave",
    "WEB_URL": "https://www.wmata.com/rider-guide/stations/potomac-ave.cfm",
    "GIS_ID": "MetroStnFullPt_42",
    "MAR_ID": 316349,
    "GLOBALID": "{71C3B56E-28AF-4969-BC06-3BF7FA3848EB}",
    "OBJECTID": 648,
    "CREATED": 1669840377000,
    "EDITED": 1669840377000,
    "SE_ANNO_CAD_DATA": null
   }
  },
  {
   "type": "Feature",
   "id": 649,
   "geometry": {
    "type": "Point",
    "coordinates": [
     -76.97709117127123,
     38.88671687528953
    ]
   },
   "properties": {
    "NAME": "Stadium-Armory",
    "ADDRESS": "290 19TH STREET SE, WASHINGTON, DC",
    "LINE": "blue, orange, silver",
    "TRAININFO_URL": "https://www.wmata.com/js/nexttrain/nexttrain.html#D08|Stadium-Armory",
    "WEB_URL": "https://www.wmata.com/rider-guide/stations/stadium-armory.cfm",
    "GIS_ID": "MetroStnFullPt_43",
    "MAR_ID": 316351,
    "GLOBALID": "{809642E3-BB43-4F8E-884F-294C98299B54}",
    "OBJECTID": 649,
    "CREATED": 1669840377000,
    "EDITED": 1669840377000,
    "SE_ANNO_CAD_DATA": null
   }
  },
  {
   "type": "Feature",
   "id": 650,
   "geometry": {
    "type": "Point",
    "coordinates": [
     -76.99593919445644,
     38.92106748085953
    ]
   },
   "properties": {
    "NAME": "Rhode Island Ave-Brentwood",
    "ADDRESS": "801 RHODE ISLAND AVENUE NE, WASHINGTON, DC",
    "LINE": "red",
    "TRAININFO_URL": "https://www.wmata.com/js/nexttrain/nexttrain.html#B04|Rhode%20Island%20Ave-Brentwood",
    "WEB_URL": "https://www.wmata.com/rider-guide/stations/rhode-island-ave.cfm",
    "GIS_ID": "MetroStnFullPt_44",
    "MAR_ID": 316413,
    "GLOBALID": "{F115102F-4192-48E5-9937-F3903C8CD50F}",
    "OBJECTID": 650,
    "CREATED": 1669840377000,
    "EDITED": 1669840377000,
    "SE_ANNO_CAD_DATA": null
   }
  },
  {
   "type": "Feature",
   "id": 651,
   "geometry": {
    "type": "Point",
    "coordinates": [
     -76.9467499947779,
     38.89919901218131
    ]
   },
   "properties": {
    "NAME": "Minnesota Ave",
    "ADDRESS": "4120 MINNESOTA AVENUE NE, WASHINGTON, DC",
    "LINE": "orange",
    "TRAININFO_URL": "https://www.wmata.com/js/nexttrain/nexttrain.html#D09|Minnesota Ave",
    "WEB_URL": "https://www.wmata.com/rider-guide/stations/minnesota-ave.cfm",
    "GIS_ID": "MetroStnFullPt_45",
    "MAR_ID": 316352,
    "GLOBALID": "{A37E238C-D6C1-4D31-BC6A-8658C4D16EB0}",
    "OBJECTID": 651,
    "CREATED": 1669840377000,
    "EDITED": 1669840377000,
    "SE_ANNO_CAD_DATA": null
   }
  },
  {
   "type": "Feature",
   "id": 652,
   "geometry": {
    "type": "Point",
    "coordinates": [
     -77.06298848055067,
     38.94327308196991
    ]
   },
   "properties": {
    "NAME": "Van Ness-UDC",
    "ADDRESS": "4230 CONNECTICUT AVENUE NW, WASHINGTON, DC",
    "LINE": "red",
    "TRAININFO_URL": "https://www.wmata.com/js/nexttrain/nexttrain.html#A06|Van%20Ness-UDC",
    "WEB_URL": "https://www.wmata.com/rider-guide/stations/van-ness.cfm",
    "GIS_ID": "MetroStnFullPt_46",
    "MAR_ID": 316424,
    "GLOBALID": "{AB085E4E-6BEE-46F6-B9DE-CA9F0B43BABC}",
    "OBJECTID": 652,
    "CREATED": 1669840377000,
    "EDITED": 1669840377000,
    "SE_ANNO_CAD_DATA": null
   }
  },
  {
   "type": "Feature",
   "id": 653,
   "geometry": {
    "type": "Point",
    "coordinates": [
     -77.05804481710518,
     38.934770682924885
    ]
   },
   "properties": {
    "NAME": "Cleveland Park",
    "ADDRESS": "3514 CONNECTICUT AVENUE NW, WASHINGTON, DC",
    "LINE": "red",
    "TRAININFO_URL": "https://www.wmata.com/js/nexttrain/nexttrain.html#A05|Cleveland Park",
    "WEB_URL": "https://www.wmata.com/rider-guide/stations/cleveland-park.cfm",
    "GIS_ID": "MetroStnFullPt_47",
    "MAR_ID": 277555,
    "GLOBALID": "{981A997C-18E7-4EF9-B2D5-4CD16CD5318B}",
    "OBJECTID": 653,
    "CREATED": 1669840377000,
    "EDITED": 1669840377000,
    "SE_ANNO_CAD_DATA": null
   }
  },
  {
   "type": "Feature",
   "id": 654,
   "geometry": {
    "type": "Point",
    "coordinates": [
     -77.03255440732187,
     38.92784575919845
    ]
   },
   "properties": {
    "NAME": "Columbia Heights",
    "ADDRESS": "3030 14TH STREET NW, WASHINGTON, DC",
    "LINE": "green",
    "TRAININFO_URL": "https://www.wmata.com/js/nexttrain/nexttrain.html#E04|Columbia Heights",
    "WEB_URL": "https://www.wmata.com/rider-guide/stations/columbia-hghts.cfm",
    "GIS_ID": "MetroStnFullPt_48",
    "MAR_ID": 294815,
    "GLOBALID": "{4E383C34-8A11-4A48-B948-B8A0597F0446}",
    "OBJECTID": 654,
    "CREATED": 1669840377000,
    "EDITED": 1710876422000,
    "SE_ANNO_CAD_DATA": null
   }
  },
  {
   "type": "Feature",
   "id": 655,
   "geometry": {
    "type": "Point",
    "coordinates": [
     -77.24156035171244,
     38.928959627656745
    ]
   },
   "properties": {
    "NAME": "Spring Hill",
    "ADDRESS": "1576 SPRING HILL ROAD VIENNA, VA 22182",
    "LINE": "silver",
    "TRAININFO_URL": "https://www.wmata.com/js/nexttrain/nexttrain.html#N04|Spring%20Hill",
    "WEB_URL": "https://www.wmata.com/rider-guide/stations/spring-hill.cfm",
    "GIS_ID": "MetroStnFullPt_49",
    "MAR_ID": null,
    "GLOBALID": "{B7A1620C-B527-45F6-9C79-45CF95BD95BD}",
    "OBJECTID": 655,
    "CREATED": 1669840377000,
    "EDITED": 1669840377000,
    "SE_ANNO_CAD_DATA": null
   }
  },
  {
   "type": "Feature",
   "id": 697,
   "geometry": {
    "type": "Point",
    "coordinates": [
     -77.1038520380558,
     39.02927675944517
    ]
   },
   "properties": {
    "NAME": "Grosvenor-Strathmore",
    "ADDRESS": "10300 ROCKVILLE PIKE, BETHESDA, MD",
    "LINE": "red",
    "TRAININFO_URL": "https://www.wmata.com/js/nexttrain/nexttrain.html#A11|Grosvenor-Strathmore",
    "WEB_URL": "https://www.wmata.com/rider-guide/stations/grosvenor.cfm",
    "GIS_ID": "MetroStnFullPt_5",
    "MAR_ID": null,
    "GLOBALID": "{985A54CE-ADC2-4C63-9213-6EA837AF9D8F}",
    "OBJECTID": 697,
    "CREATED": 1669840377000,
    "EDITED": 1669840377000,
    "SE_ANNO_CAD_DATA": null
   }
  },
  {
   "type": "Feature",
   "id": 656,
   "geometry": {
    "type": "Point",
    "coordinates": [
     -77.233880199548,
     38.92096317905126
    ]
   },
   "properties": {
    "NAME": "Greensboro",
    "ADDRESS": "8305 LEESBURG PIKE VIENNA, VA 22182",
    "LINE": "silver",
    "TRAININFO_URL": "https://www.wmata.com/js/nexttrain/nexttrain.html#N03|Greensboro",
    "WEB_URL": "https://www.wmata.com/rider-guide/stations/greensboro.cfm",
    "GIS_ID": "MetroStnFullPt_50",
    "MAR_ID": null,
    "GLOBALID": "{C854F20C-52BC-4DFC-830A-A3924CC352B2}",
    "OBJECTID": 656,
    "CREATED": 1669840377000,
    "EDITED": 1669840377000,
    "SE_ANNO_CAD_DATA": null
   }
  },
  {
   "type": "Feature",
   "id": 657,
   "geometry": {
    "type": "Point",
    "coordinates": [
     -77.2217180330483,
     38.92068205405081
    ]
   },
   "properties": {
    "NAME": "Tysons",
    "ADDRESS": "1943 CHAIN BRIDGE ROAD MCLEAN, VA 22102",
    "LINE": "silver",
    "TRAININFO_URL": "https://www.wmata.com/js/nexttrain/nexttrain.html#N02|Tysons%20Corner",
    "WEB_URL": "https://www.wmata.com/rider-guide/stations/tysons.cfm",
    "GIS_ID": "MetroStnFullPt_51",
    "MAR_ID": null,
    "GLOBALID": "{C20F7ACA-3301-4036-AA2F-8AE7EC6E2775}",
    "OBJECTID": 657,
    "CREATED": 1669840377000,
    "EDITED": 1669840377000,
    "SE_ANNO_CAD_DATA": null
   }
  },
  {
   "type": "Feature",
   "id": 658,
   "geometry": {
    "type": "Point",
    "coordinates": [
     -77.21008129320533,
     38.92452955166994
    ]
   },
   "properties": {
    "NAME": "McLean",
    "ADDRESS": "1824 DOLLEY MADISON BOULIVARD MCLEAN, VA 22102",
    "LINE": "silver",
    "TRAININFO_URL": "https://www.wmata.com/js/nexttrain/nexttrain.html#N01|McLean",
    "WEB_URL": "https://www.wmata.com/rider-guide/stations/mclean.cfm",
    "GIS_ID": "MetroStnFullPt_52",
    "MAR_ID": null,
    "GLOBALID": "{DE828471-044E-4009-BFEB-9F09AD06D261}",
    "OBJECTID": 658,
    "CREATED": 1669840377000,
    "EDITED": 1669840377000,
    "SE_ANNO_CAD_DATA": null
   }
  },
  {
   "type": "Feature",
   "id": 676,
   "geometry": {
    "type": "Point",
    "coordinates": [
     -77.34006221928644,
     38.94774066428513
    ]
   },
   "properties": {
    "NAME": "Wiehle-Reston East",
    "ADDRESS": "1862 WIEHLE AVENUE RESTON, VA 20190",
    "LINE": "silver",
    "TRAININFO_URL": "https://www.wmata.com/js/nexttrain/nexttrain.html#N06|Wiehle-Reston%20East",
    "WEB_URL": "https://www.wmata.com/rider-guide/stations/wiehle-reston.cfm",
    "GIS_ID": "MetroStnFullPt_53",
    "MAR_ID": null,
    "GLOBALID": "{C848030E-1D8D-4599-A966-404F23B5525B}",
    "OBJECTID": 676,
    "CREATED": 1669840377000,
    "EDITED": 1669840377000,
    "SE_ANNO_CAD_DATA": null
   }
  },
  {
   "type": "Feature",
   "id": 677,
   "geometry": {
    "type": "Point",
    "coordinates": [
     -76.92812724204757,
     38.97864143976418
    ]
   },
   "properties": {
    "NAME": "College Park-U of Md",
    "ADDRESS": "4931 CALVERT ROAD, COLLEGE PARK, MD",
    "LINE": "green",
    "TRAININFO_URL": "https://www.wmata.com/js/nexttrain/nexttrain.html#E09|College Park-U of MD",
    "WEB_URL": "https://www.wmata.com/rider-guide/stations/college-park.cfm",
    "GIS_ID": "MetroStnFullPt_54",
    "MAR_ID": null,
    "GLOBALID": "{430ACADE-D35D-4988-B813-37EC8EE1A724}",
    "OBJECTID": 677,
    "CREATED": 1669840377000,
    "EDITED": 1710876422000,
    "SE_ANNO_CAD_DATA": null
   }
  },
  {
   "type": "Feature",
   "id": 678,
   "geometry": {
    "type": "Point",
    "coordinates": [
     -76.91181036418405,
     38.889473645298985
    ]
   },
   "properties": {
    "NAME": "Capitol Heights",
    "ADDRESS": "133 CENTRAL AVENUE, CAPITOL HEIGHTS, MD",
    "LINE": "blue, silver",
    "TRAININFO_URL": "https://www.wmata.com/js/nexttrain/nexttrain.html#G02|Capitol Heights",
    "WEB_URL": "https://www.wmata.com/rider-guide/stations/capitol-hghts.cfm",
    "GIS_ID": "MetroStnFullPt_55",
    "MAR_ID": null,
    "GLOBALID": "{1BBABA9D-DEBE-4CF4-95A4-27A01A05A052}",
    "OBJECTID": 678,
    "CREATED": 1669840377000,
    "EDITED": 1710876422000,
    "SE_ANNO_CAD_DATA": null
   }
  },
  {
   "type": "Feature",
   "id": 679,
   "geometry": {
    "type": "Point",
    "coordinates": [
     -76.86807700443886,
     38.89384271914414
    ]
   },
   "properties": {
    "NAME": "Morgan Boulevard",
    "ADDRESS": "300 GARRETT MORGAN BLVD., LANDOVER, MD",
    "LINE": "blue, silver",
    "TRAININFO_URL": "https://www.wmata.com/js/nexttrain/nexttrain.html#G04|Morgan Boulevard",
    "WEB_URL": "https://www.wmata.com/rider-guide/stations/morgan-blvd.cfm",
    "GIS_ID": "MetroStnFullPt_56",
    "MAR_ID": null,
    "GLOBALID": "{DBEE6F8C-40E8-4BAF-95BE-6B6B9EB8E332}",
    "OBJECTID": 679,
    "CREATED": 1669840377000,
    "EDITED": 1710876422000,
    "SE_ANNO_CAD_DATA": null
   }
  },
  {
   "type": "Feature",
   "id": 680,
   "geometry": {
    "type": "Point",
    "coordinates": [
     -77.02346319144657,
     38.93744242409251
    ]
   },
   "properties": {
    "NAME": "Georgia Ave-Petworth",
    "ADDRESS": "3750 GEORGIA AVENUE NW, WASHINGTON, DC",
    "LINE": "green",
    "TRAININFO_URL": "https://www.wmata.com/js/nexttrain/nexttrain.html#E05|Georgia Ave-Petworth",
    "WEB_URL": "https://www.wmata.com/rider-guide/stations/georgia-ave.cfm",
    "GIS_ID": "MetroStnFullPt_57",
    "MAR_ID": 316437,
    "GLOBALID": "{410B651B-44E7-447F-9304-D86D700B58D7}",
    "OBJECTID": 680,
    "CREATED": 1669840377000,
    "EDITED": 1710876422000,
    "SE_ANNO_CAD_DATA": null
   }
  },
  {
   "type": "Feature",
   "id": 681,
   "geometry": {
    "type": "Point",
    "coordinates": [
     -77.01817898679428,
     38.97608633299409
    ]
   },
   "properties": {
    "NAME": "Takoma",
    "ADDRESS": "327 CEDAR STREET NW, WASHINGTON, DC",
    "LINE": "red",
    "TRAININFO_URL": "https://www.wmata.com/js/nexttrain/nexttrain.html#B07|Takoma",
    "WEB_URL": "https://www.wmata.com/rider-guide/stations/takoma.cfm",
    "GIS_ID": "MetroStnFullPt_58",
    "MAR_ID": 294822,
    "GLOBALID": "{DDF7F2C1-C5E0-487C-B715-9CBCA7C05B36}",
    "OBJECTID": 681,
    "CREATED": 1669840377000,
    "EDITED": 1669840377000,
    "SE_ANNO_CAD_DATA": null
   }
  },
  {
   "type": "Feature",
   "id": 682,
   "geometry": {
    "type": "Point",
    "coordinates": [
     -77.05355966373482,
     39.06179158336699
    ]
   },
   "properties": {
    "NAME": "Glenmont",
    "ADDRESS": "12501 GEORGIA AVENUE, SILVER SPRING, MD",
    "LINE": "red",
    "TRAININFO_URL": "https://www.wmata.com/js/nexttrain/nexttrain.html#B11|Glenmont",
    "WEB_URL": "https://www.wmata.com/rider-guide/stations/glenmont.cfm",
    "GIS_ID": "MetroStnFullPt_59",
    "MAR_ID": null,
    "GLOBALID": "{79EB246F-D44F-4B85-825A-F2400F42A60D}",
    "OBJECTID": 682,
    "CREATED": 1669840377000,
    "EDITED": 1669840377000,
    "SE_ANNO_CAD_DATA": null
   }
  },
  {
   "type": "Feature",
   "id": 698,
   "geometry": {
    "type": "Point",
    "coordinates": [
     -77.0969546046393,
     39.000064288152586
    ]
   },
   "properties": {
    "NAME": "Medical Center",
    "ADDRESS": "8810 ROCKVILLE PIKE, BETHESDA, MD",
    "LINE": "red",
    "TRAININFO_URL": "https://www.wmata.com/js/nexttrain/nexttrain.html#A10|Medical Center",
    "WEB_URL": "https://www.wmata.com/rider-guide/stations/medical-center.cfm",
    "GIS_ID": "MetroStnFullPt_6",
    "MAR_ID": null,
    "GLOBALID": "{339E5342-621E-4364-BE17-C2FD15F9BC13}",
    "OBJECTID": 698,
    "CREATED": 1669840377000,
    "EDITED": 1669840377000,
    "SE_ANNO_CAD_DATA": null
   }
  },
  {
   "type": "Feature",
   "id": 683,
   "geometry": {
    "type": "Point",
    "coordinates": [
     -77.05010935533228,
     39.037534956767026
    ]
   },
   "properties": {
    "NAME": "Wheaton",
    "ADDRESS": "11171 GEORGIA AVENUE, SILVER SPRING, MD",
    "LINE": "red",
    "TRAININFO_URL": "https://www.wmata.com/js/nexttrain/nexttrain.html#B10|Wheaton",
    "WEB_URL": "https://www.wmata.com/rider-guide/stations/wheaton.cfm",
    "GIS_ID": "MetroStnFullPt_60",
    "MAR_ID": null,
    "GLOBALID": "{D9987F99-C00F-4B45-912E-FE8B7AD5DE03}",
    "OBJECTID": 683,
    "CREATED": 1669840377000,
    "EDITED": 1669840377000,
    "SE_ANNO_CAD_DATA": null
   }
  },
  {
   "type": "Feature",
   "id": 684,
   "geometry": {
    "type": "Point",
    "coordinates": [
     -77.04291885307322,
     39.0149620841024
    ]
   },
   "properties": {
    "NAME": "Forest Glen",
    "ADDRESS": "9730 GEORGIA AVENUE, FOREST GLEN, MD",
    "LINE": "red",
    "TRAININFO_URL": "https://www.wmata.com/js/nexttrain/nexttrain.html#B09|Forest Glen",
    "WEB_URL": "https://www.wmata.com/rider-guide/stations/forest-glen.cfm",
    "GIS_ID": "MetroStnFullPt_61",
    "MAR_ID": null,
    "GLOBALID": "{54992DEC-7A45-41D1-A18F-5C34488DE26C}",
    "OBJECTID": 684,
    "CREATED": 1669840377000,
    "EDITED": 1669840377000,
    "SE_ANNO_CAD_DATA": null
   }
  },
  {
   "type": "Feature",
   "id": 685,
   "geometry": {
    "type": "Point",
    "coordinates": [
     -77.03102011999887,
     38.9939571798124
    ]
   },
   "properties": {
    "NAME": "Silver Spring",
    "ADDRESS": "8400 COLESVILLE ROAD, SILVER SPRING, MD",
    "LINE": "red",
    "TRAININFO_URL": "https://www.wmata.com/js/nexttrain/nexttrain.html#B08|Silver%20Spring",
    "WEB_URL": "https://www.wmata.com/rider-guide/stations/silver-spring.cfm",
    "GIS_ID": "MetroStnFullPt_62",
    "MAR_ID": null,
    "GLOBALID": "{A043879B-FDB8-4ED8-B0A1-868CC0D23D58}",
    "OBJECTID": 685,
    "CREATED": 1669840377000,
    "EDITED": 1669840377000,
    "SE_ANNO_CAD_DATA": null
   }
  },
  {
   "type": "Feature",
   "id": 686,
   "geometry": {
    "type": "Point",
    "coordinates": [
     -76.99453656319739,
     38.933218785528275
    ]
   },
   "properties": {
    "NAME": "Brookland-CUA",
    "ADDRESS": "890 MONROE STREET NE, WASHINGTON, DC",
    "LINE": "red",
    "TRAININFO_URL": "https://www.wmata.com/js/nexttrain/nexttrain.html#B05|Brookland-CUA",
    "WEB_URL": "https://www.wmata.com/rider-guide/stations/brookland.cfm",
    "GIS_ID": "MetroStnFullPt_63",
    "MAR_ID": 316412,
    "GLOBALID": "{94BB3DA7-228A-4F2C-8E8A-27CBD49E525C}",
    "OBJECTID": 686,
    "CREATED": 1669840377000,
    "EDITED": 1669840377000,
    "SE_ANNO_CAD_DATA": null
   }
  },
  {
   "type": "Feature",
   "id": 687,
   "geometry": {
    "type": "Point",
    "coordinates": [
     -77.0022053584327,
     38.95185456523338
    ]
   },
   "properties": {
    "NAME": "Fort Totten",
    "ADDRESS": "201 GALLOWAY STREET NE, WASHINGTON, DC",
    "LINE": "red, green",
    "TRAININFO_URL": "https://www.wmata.com/js/nexttrain/nexttrain.html#B06,E06|Fort Totten",
    "WEB_URL": "https://www.wmata.com/rider-guide/stations/fort-totten.cfm",
    "GIS_ID": "MetroStnFullPt_64",
    "MAR_ID": 316355,
    "GLOBALID": "{D90DDFC9-78BD-4E0A-8E80-B0EFBC2A216F}",
    "OBJECTID": 687,
    "CREATED": 1669840377000,
    "EDITED": 1710876422000,
    "SE_ANNO_CAD_DATA": null
   }
  },
  {
   "type": "Feature",
   "id": 688,
   "geometry": {
    "type": "Point",
    "coordinates": [
     -76.95588377590036,
     38.965393247951866
    ]
   },
   "properties": {
    "NAME": "Hyattsville Crossing",
    "ADDRESS": "3575 EAST WEST HIGHWAY, HYATTSVILLE, MD",
    "LINE": "green",
    "TRAININFO_URL": "https://www.wmata.com/js/nexttrain/nexttrain.html#E08|Prince%20George%27s%20Plaza",
    "WEB_URL": "https://www.wmata.com/rider-guide/stations/hyattsville-xing.cfm",
    "GIS_ID": "MetroStnFullPt_65",
    "MAR_ID": null,
    "GLOBALID": "{5866086B-8A11-459A-B1C2-05F5E82D723C}",
    "OBJECTID": 688,
    "CREATED": 1669840377000,
    "EDITED": 1710876422000,
    "SE_ANNO_CAD_DATA": null
   }
  },
  {
   "type": "Feature",
   "id": 689,
   "geometry": {
    "type": "Point",
    "coordinates": [
     -76.96957894675788,
     38.95504797022461
    ]
   },
   "properties": {
    "NAME": "West Hyattsville",
    "ADDRESS": "2700 HAMILTON ST., HYATTSVILLE, MD",
    "LINE": "green",
    "TRAININFO_URL": "https://www.wmata.com/js/nexttrain/nexttrain.html#E07|West%20Hyattsville",
    "WEB_URL": "https://www.wmata.com/rider-guide/stations/west-hyattsville.cfm",
    "GIS_ID": "MetroStnFullPt_66",
    "MAR_ID": null,
    "GLOBALID": "{D4B50126-B2F9-4594-9C87-4D47B5EF5E42}",
    "OBJECTID": 689,
    "CREATED": 1669840377000,
    "EDITED": 1710876422000,
    "SE_ANNO_CAD_DATA": null
   }
  },
  {
   "type": "Feature",
   "id": 690,
   "geometry": {
    "type": "Point",
    "coordinates": [
     -76.93836712615105,
     38.89098346374866
    ]
   },
   "properties": {
    "NAME": "Benning Road",
    "ADDRESS": "4500 CENTRAL AVENUE NE, WASHINGTON, DC",
    "LINE": "blue, silver",
    "TRAININFO_URL": "https://www.wmata.com/js/nexttrain/nexttrain.html#G01|Benning Road",
    "WEB_URL": "https://www.wmata.com/rider-guide/stations/benning-rd.cfm",
    "GIS_ID": "MetroStnFullPt_67",
    "MAR_ID": 316344,
    "GLOBALID": "{C01836FD-40E3-4F82-96E5-9FB187FFADE3}",
    "OBJECTID": 690,
    "CREATED": 1669840377000,
    "EDITED": 1710876422000,
    "SE_ANNO_CAD_DATA": null
   }
  },
  {
   "type": "Feature",
   "id": 691,
   "geometry": {
    "type": "Point",
    "coordinates": [
     -76.89411015399014,
     38.88675560536696
    ]
   },
   "properties": {
    "NAME": "Addison Road-Seat Pleasant",
    "ADDRESS": "100 ADDISON ROAD S., CAPITOL HEIGHTS, MD",
    "LINE": "blue, silver",
    "TRAININFO_URL": "https://www.wmata.com/js/nexttrain/nexttrain.html#G03|Addison Road-Seat Pleasant",
    "WEB_URL": "https://www.wmata.com/rider-guide/stations/addison-rd.cfm",
    "GIS_ID": "MetroStnFullPt_68",
    "MAR_ID": null,
    "GLOBALID": "{300B1FC4-3F26-4E1B-8100-449F4FDF0D9B}",
    "OBJECTID": 691,
    "CREATED": 1669840377000,
    "EDITED": 1710876422000,
    "SE_ANNO_CAD_DATA": null
   }
  },
  {
   "type": "Feature",
   "id": 692,
   "geometry": {
    "type": "Point",
    "coordinates": [
     -76.93525904115437,
     38.9081862878493
    ]
   },
   "properties": {
    "NAME": "Deanwood",
    "ADDRESS": "4720 MINNESOTA AVENUE NE, WASHINGTON, DC",
    "LINE": "orange",
    "TRAININFO_URL": "https://www.wmata.com/js/nexttrain/nexttrain.html#D10|Deanwood",
    "WEB_URL": "https://www.wmata.com/rider-guide/stations/deanwood.cfm",
    "GIS_ID": "MetroStnFullPt_69",
    "MAR_ID": 294855,
    "GLOBALID": "{6061BAEB-8A04-4ADF-9BE1-BB380134CAE7}",
    "OBJECTID": 692,
    "CREATED": 1669840377000,
    "EDITED": 1669840377000,
    "SE_ANNO_CAD_DATA": null
   }
  },
  {
   "type": "Feature",
   "id": 699,
   "geometry": {
    "type": "Point",
    "coordinates": [
     -77.09413150447965,
     38.9844014611561
    ]
   },
   "properties": {
    "NAME": "Bethesda",
    "ADDRESS": "7450 WISCONSIN AVENUE, BETHESDA, MD",
    "LINE": "red",
    "TRAININFO_URL": "https://www.wmata.com/js/nexttrain/nexttrain.html#A09|Bethesda",
    "WEB_URL": "https://www.wmata.com/rider-guide/stations/bethesda.cfm",
    "GIS_ID": "MetroStnFullPt_7",
    "MAR_ID": null,
    "GLOBALID": "{9DBE962E-A573-4AA2-B70A-CB042C8B2DA1}",
    "OBJECTID": 699,
    "CREATED": 1669840377000,
    "EDITED": 1669840377000,
    "SE_ANNO_CAD_DATA": null
   }
  },
  {
   "type": "Feature",
   "id": 659,
   "geometry": {
    "type": "Point",
    "coordinates": [
     -76.87184352730777,
     38.94779265750592
    ]
   },
   "properties": {
    "NAME": "New Carrollton",
    "ADDRESS": "4700 GARDEN CITY DRIVE, NEW CARROLLTON, MD",
    "LINE": "orange",
    "TRAININFO_URL": "https://www.wmata.com/js/nexttrain/nexttrain.html#D13|New Carrollton",
    "WEB_URL": "https://www.wmata.com/rider-guide/stations/new-carrollton.cfm",
    "GIS_ID": "MetroStnFullPt_70",
    "MAR_ID": null,
    "GLOBALID": "{5E6AA600-FF45-4585-BBAA-856853D9899D}",
    "OBJECTID": 659,
    "CREATED": 1669840377000,
    "EDITED": 1669840377000,
    "SE_ANNO_CAD_DATA": null
   }
  },
  {
   "type": "Feature",
   "id": 660,
   "geometry": {
    "type": "Point",
    "coordinates": [
     -76.89120021352524,
     38.93351403252956
    ]
   },
   "properties": {
    "NAME": "Landover",
    "ADDRESS": "3000 PENNSY DRIVE, HYATTSVILLE, MD",
    "LINE": "orange",
    "TRAININFO_URL": "https://www.wmata.com/js/nexttrain/nexttrain.html#D12|Landover",
    "WEB_URL": "https://www.wmata.com/rider-guide/stations/landover.cfm",
    "GIS_ID": "MetroStnFullPt_71",
    "MAR_ID": null,
    "GLOBALID": "{9DD26505-CB95-4ECF-9F70-F918DF136D7F}",
    "OBJECTID": 660,
    "CREATED": 1669840377000,
    "EDITED": 1669840377000,
    "SE_ANNO_CAD_DATA": null
   }
  },
  {
   "type": "Feature",
   "id": 661,
   "geometry": {
    "type": "Point",
    "coordinates": [
     -76.91663029686826,
     38.91663964838862
    ]
   },
   "properties": {
    "NAME": "Cheverly",
    "ADDRESS": "5501 COLUMBIA PARK, CHEVERLY, MD \n",
    "LINE": "orange",
    "TRAININFO_URL": "https://www.wmata.com/js/nexttrain/nexttrain.html#D11|Cheverly",
    "WEB_URL": "https://www.wmata.com/rider-guide/stations/cheverly.cfm",
    "GIS_ID": "MetroStnFullPt_72",
    "MAR_ID": null,
    "GLOBALID": "{57853466-E3C1-4581-956F-A4B4E6DB386B}",
    "OBJECTID": 661,
    "CREATED": 1669840377000,
    "EDITED": 1669840377000,
    "SE_ANNO_CAD_DATA": null
   }
  },
  {
   "type": "Feature",
   "id": 662,
   "geometry": {
    "type": "Point",
    "coordinates": [
     -76.84455387088464,
     38.90060751653347
    ]
   },
   "properties": {
    "NAME": "Downtown Largo",
    "ADDRESS": "9000 LOTTSFORD ROAD, LARGO, MD",
    "LINE": "blue, silver",
    "TRAININFO_URL": "https://www.wmata.com/js/nexttrain/nexttrain.html#G05|Largo Town Center",
    "WEB_URL": "https://www.wmata.com/rider-guide/stations/downtown-largo.cfm",
    "GIS_ID": "MetroStnFullPt_73",
    "MAR_ID": null,
    "GLOBALID": "{7B93BA76-A584-48EF-8C50-B1CF39E97A89}",
    "OBJECTID": 662,
    "CREATED": 1669840377000,
    "EDITED": 1710876422000,
    "SE_ANNO_CAD_DATA": null
   }
  },
  {
   "type": "Feature",
   "id": 663,
   "geometry": {
    "type": "Point",
    "coordinates": [
     -77.00302272641831,
     38.90702400072911
    ]
   },
   "properties": {
    "NAME": "NoMa-Gallaudet U",
    "ADDRESS": "1301 2ND STREET NE, WASHINGTON, DC",
    "LINE": "red",
    "TRAININFO_URL": "https://www.wmata.com/js/nexttrain/nexttrain.html#B35|NoMa-Gallaudet U",
    "WEB_URL": "https://www.wmata.com/rider-guide/stations/new-york-ave.cfm",
    "GIS_ID": "MetroStnFullPt_74",
    "MAR_ID": 316364,
    "GLOBALID": "{CE6374C5-74C1-4321-84FD-78DF92E8BC98}",
    "OBJECTID": 663,
    "CREATED": 1669840377000,
    "EDITED": 1669840377000,
    "SE_ANNO_CAD_DATA": null
   }
  },
  {
   "type": "Feature",
   "id": 664,
   "geometry": {
    "type": "Point",
    "coordinates": [
     -77.07091098499193,
     38.89598688010644
    ]
   },
   "properties": {
    "NAME": "Rosslyn",
    "ADDRESS": "1850 N. MOORE STREET, ARLINGTON, VA",
    "LINE": "blue, orange, silver",
    "TRAININFO_URL": "https://www.wmata.com/js/nexttrain/nexttrain.html#C05|Rosslyn",
    "WEB_URL": "https://www.wmata.com/rider-guide/stations/rosslyn.cfm",
    "GIS_ID": "MetroStnFullPt_75",
    "MAR_ID": null,
    "GLOBALID": "{BFDCCA71-8337-4C9C-B666-D04DEBD0D74C}",
    "OBJECTID": 664,
    "CREATED": 1669840377000,
    "EDITED": 1669840377000,
    "SE_ANNO_CAD_DATA": null
   }
  },
  {
   "type": "Feature",
   "id": 665,
   "geometry": {
    "type": "Point",
    "coordinates": [
     -77.06281242553689,
     38.88469464037121
    ]
   },
   "properties": {
    "NAME": "Arlington Cemetery",
    "ADDRESS": "1000 NORTH MEMORIAL DRIVE, ARLINGTON, VA",
    "LINE": "blue",
    "TRAININFO_URL": "https://www.wmata.com/js/nexttrain/nexttrain.html#C06|Arlington Cemetery",
    "WEB_URL": "https://www.wmata.com/rider-guide/stations/arlington-cemetery.cfm",
    "GIS_ID": "MetroStnFullPt_76",
    "MAR_ID": null,
    "GLOBALID": "{2D2B14DD-F8ED-4C26-B99C-A07DFCD10AD2}",
    "OBJECTID": 665,
    "CREATED": 1669840377000,
    "EDITED": 1669840377000,
    "SE_ANNO_CAD_DATA": null
   }
  },
  {
   "type": "Feature",
   "id": 666,
   "geometry": {
    "type": "Point",
    "coordinates": [
     -77.04341665160557,
     38.909605845165814
    ]
   },
   "properties": {
    "NAME": "Dupont Circle",
    "ADDRESS": "1525 20TH STREET NW, WASHINGTON, DC",
    "LINE": "red",
    "TRAININFO_URL": "https://www.wmata.com/js/nexttrain/nexttrain.html#A03|Dupont Circle",
    "WEB_URL": "https://www.wmata.com/rider-guide/stations/dupont-circle.cfm",
    "GIS_ID": "MetroStnFullPt_77",
    "MAR_ID": null,
    "GLOBALID": "{A2575E22-F3EC-4FBD-9D9F-A2533EB3ABDF}",
    "OBJECTID": 666,
    "CREATED": 1669840377000,
    "EDITED": 1669840377000,
    "SE_ANNO_CAD_DATA": null
   }
  },
  {
   "type": "Feature",
   "id": 667,
   "geometry": {
    "type": "Point",
    "coordinates": [
     -77.05371796606917,
     38.869470480374495
    ]
   },
   "properties": {
    "NAME": "Pentagon",
    "ADDRESS": "2 SOUTH ROTARY ROAD, ARLINGTON, VA",
    "LINE": "blue, yellow",
    "TRAININFO_URL": "https://www.wmata.com/js/nexttrain/nexttrain.html#C07|Pentagon",
    "WEB_URL": "https://www.wmata.com/rider-guide/stations/pentagon.cfm",
    "GIS_ID": "MetroStnFullPt_78",
    "MAR_ID": null,
    "GLOBALID": "{1F781087-2E29-44DA-BC00-AF784039FE7B}",
    "OBJECTID": 667,
    "CREATED": 1669840377000,
    "EDITED": 1669840377000,
    "SE_ANNO_CAD_DATA": null
   }
  },
  {
   "type": "Feature",
   "id": 668,
   "geometry": {
    "type": "Point",
    "coordinates": [
     -77.05029210057545,
     38.85791209734927
    ]
   },
   "properties": {
    "NAME": "Crystal City",
    "ADDRESS": "1750 SOUTH CLARK ST., ARLINGTON, VA",
    "LINE": "blue, yellow",
    "TRAININFO_URL": "https://www.wmata.com/js/nexttrain/nexttrain.html#C09|Crystal City",
    "WEB_URL": "https://www.wmata.com/rider-guide/stations/crystal-city.cfm",
    "GIS_ID": "MetroStnFullPt_79",
    "MAR_ID": null,
    "GLOBALID": "{70F6FDA2-F3E3-4F64-8D9E-6DE354C07F7C}",
    "OBJECTID": 668,
    "CREATED": 1669840377000,
    "EDITED": 1669840377000,
    "SE_ANNO_CAD_DATA": null
   }
  },
  {
   "type": "Feature",
   "id": 700,
   "geometry": {
    "type": "Point",
    "coordinates": [
     -77.0502800325331,
     38.90070579477101
    ]
   },
   "properties": {
    "NAME": "Foggy Bottom-GWU",
    "ADDRESS": "890 23RD STREET NW, WASHINGTON, DC",
    "LINE": "blue, orange, silver",
    "TRAININFO_URL": "https://www.wmata.com/js/nexttrain/nexttrain.html#C04|Foggy Bottom-GWU",
    "WEB_URL": "https://www.wmata.com/rider-guide/stations/foggy-bottom.cfm",
    "GIS_ID": "MetroStnFullPt_8",
    "MAR_ID": 316428,
    "GLOBALID": "{2110D899-622B-4CA0-B263-1AF57B2ECEED}",
    "OBJECTID": 700,
    "CREATED": 1669840377000,
    "EDITED": 1669840377000,
    "SE_ANNO_CAD_DATA": null
   }
  },
  {
   "type": "Feature",
   "id": 669,
   "geometry": {
    "type": "Point",
    "coordinates": [
     -77.00508792929439,
     38.87648886724885
    ]
   },
   "properties": {
    "NAME": "Navy Yard-Ballpark",
    "ADDRESS": "1155 NEW JERSEY AVENUE SE, WASHINGTON, DC",
    "LINE": "green",
    "TRAININFO_URL": "https://www.wmata.com/js/nexttrain/nexttrain.html#F05|Navy Yard-Ballpark",
    "WEB_URL": "https://www.wmata.com/rider-guide/stations/navy-yard.cfm",
    "GIS_ID": "MetroStnFullPt_80",
    "MAR_ID": 310434,
    "GLOBALID": "{2C674F9C-CE73-4523-B02E-59C1664409AC}",
    "OBJECTID": 669,
    "CREATED": 1669840377000,
    "EDITED": 1669840377000,
    "SE_ANNO_CAD_DATA": null
   }
  },
  {
   "type": "Feature",
   "id": 670,
   "geometry": {
    "type": "Point",
    "coordinates": [
     -77.03363646045379,
     38.90134058317957
    ]
   },
   "properties": {
    "NAME": "McPherson Sq",
    "ADDRESS": "1402 I STREET NW, WASHINGTON, DC",
    "LINE": "blue, orange, silver",
    "TRAININFO_URL": "https://www.wmata.com/js/nexttrain/nexttrain.html#C02|McPherson Square",
    "WEB_URL": "https://www.wmata.com/rider-guide/stations/mcpherson-sq.cfm",
    "GIS_ID": "MetroStnFullPt_81",
    "MAR_ID": 316430,
    "GLOBALID": "{FB63C8B0-54DE-4EB9-BCC1-D7BC05301F13}",
    "OBJECTID": 670,
    "CREATED": 1669840377000,
    "EDITED": 1669840377000,
    "SE_ANNO_CAD_DATA": null
   }
  },
  {
   "type": "Feature",
   "id": 671,
   "geometry": {
    "type": "Point",
    "coordinates": [
     -77.02191398620502,
     38.91348466034191
    ]
   },
   "properties": {
    "NAME": "Shaw-Howard U",
    "ADDRESS": "1801 7TH ST NW, WASHINGTON, DC",
    "LINE": "green",
    "TRAININFO_URL": "https://www.wmata.com/js/nexttrain/nexttrain.html#E02|Shaw-Howard%20U",
    "WEB_URL": "https://www.wmata.com/rider-guide/stations/shaw-howard.cfm",
    "GIS_ID": "MetroStnFullPt_82",
    "MAR_ID": 310410,
    "GLOBALID": "{CD8CE6FF-4382-4668-A87A-1BD781562BB3}",
    "OBJECTID": 671,
    "CREATED": 1669840377000,
    "EDITED": 1710876422000,
    "SE_ANNO_CAD_DATA": null
   }
  },
  {
   "type": "Feature",
   "id": 672,
   "geometry": {
    "type": "Point",
    "coordinates": [
     -76.97505640529616,
     38.841093556641
    ]
   },
   "properties": {
    "NAME": "Southern Avenue",
    "ADDRESS": "1411 SOUTHERN AVENUE, TEMPLE HILLS, MD",
    "LINE": "green",
    "TRAININFO_URL": "https://www.wmata.com/js/nexttrain/nexttrain.html#F08|Southern%20Avenue",
    "WEB_URL": "https://www.wmata.com/rider-guide/stations/southern-ave.cfm",
    "GIS_ID": "MetroStnFullPt_83",
    "MAR_ID": null,
    "GLOBALID": "{1DB66F55-54F9-4151-B089-92E0C287DD62}",
    "OBJECTID": 672,
    "CREATED": 1669840377000,
    "EDITED": 1669840377000,
    "SE_ANNO_CAD_DATA": null
   }
  },
  {
   "type": "Feature",
   "id": 673,
   "geometry": {
    "type": "Point",
    "coordinates": [
     -76.91105982997773,
     39.011153673492075
    ]
   },
   "properties": {
    "NAME": "Greenbelt",
    "ADDRESS": "5717 GREENBELT METRO DRIVE, GREENBELT, MD",
    "LINE": "green",
    "TRAININFO_URL": "https://www.wmata.com/js/nexttrain/nexttrain.html#E10|Greenbelt",
    "WEB_URL": "https://www.wmata.com/rider-guide/stations/greenbelt.cfm",
    "GIS_ID": "MetroStnFullPt_84",
    "MAR_ID": null,
    "GLOBALID": "{E8AB7FE9-199E-458D-A82D-F3AD208546D6}",
    "OBJECTID": 673,
    "CREATED": 1669840377000,
    "EDITED": 1710876422000,
    "SE_ANNO_CAD_DATA": null
   }
  },
  {
   "type": "Feature",
   "id": 674,
   "geometry": {
    "type": "Point",
    "coordinates": [
     -77.07958963107609,
     38.94885922929714
    ]
   },
   "properties": {
    "NAME": "Tenleytown-AU",
    "ADDRESS": "4501 WISCONSIN AVENUE NW, WASHINGTON, DC",
    "LINE": "red",
    "TRAININFO_URL": "https://www.wmata.com/js/nexttrain/nexttrain.html#A07|Tenleytown-AU",
    "WEB_URL": "https://www.wmata.com/rider-guide/stations/tenleytown.cfm",
    "GIS_ID": "MetroStnFullPt_85",
    "MAR_ID": 294846,
    "GLOBALID": "{6581A6F8-18F1-4277-BB96-720298CB096D}",
    "OBJECTID": 674,
    "CREATED": 1669840377000,
    "EDITED": 1669840377000,
    "SE_ANNO_CAD_DATA": null
   }
  },
  {
   "type": "Feature",
   "id": 675,
   "geometry": {
    "type": "Point",
    "coordinates": [
     -77.18909715927872,
     38.900788331406986
    ]
   },
   "properties": {
    "NAME": "West Falls Church",
    "ADDRESS": "7040 HAYCOCK ROAD, FALLS CHURCH, VA",
    "LINE": "orange",
    "TRAININFO_URL": "https://www.wmata.com/js/nexttrain/nexttrain.html#K06|West%20Falls%20Church-VT/UVA",
    "WEB_URL": "https://www.wmata.com/rider-guide/stations/west-falls-church.cfm",
    "GIS_ID": "MetroStnFullPt_86",
    "MAR_ID": null,
    "GLOBALID": "{A2A12536-FD0D-425C-998D-28414AEB443E}",
    "OBJECTID": 675,
    "CREATED": 1669840377000,
    "EDITED": 1669840377000,
    "SE_ANNO_CAD_DATA": null
   }
  },
  {
   "type": "Feature",
   "id": 727,
   "geometry": {
    "type": "Point",
    "coordinates": [
     -77.22716301958482,
     38.88363291144645
    ]
   },
   "properties": {
    "NAME": "Dunn Loring-Merrifield",
    "ADDRESS": "2700 GALLOWS ROAD, VIENNA, VA",
    "LINE": "orange",
    "TRAININFO_URL": "https://www.wmata.com/js/nexttrain/nexttrain.html#K07|Dunn Loring-Merrifield",
    "WEB_URL": "https://www.wmata.com/rider-guide/stations/dunn-loring.cfm",
    "GIS_ID": "MetroStnFullPt_87",
    "MAR_ID": null,
    "GLOBALID": "{EA9BC989-D9F8-4DBD-96A0-CBBDCE34B72B}",
    "OBJECTID": 727,
    "CREATED": 1669840377000,
    "EDITED": 1669840377000,
    "SE_ANNO_CAD_DATA": null
   }
  },
  {
   "type": "Feature",
   "id": 728,
   "geometry": {
    "type": "Point",
    "coordinates": [
     -77.27262461816473,
     38.87760889642973
    ]
   },
   "properties": {
    "NAME": "Vienna/Fairfax-GMU",
    "ADDRESS": "2900 NUTLEY ST., FAIRFAX, VA",
    "LINE": "orange",
    "TRAININFO_URL": "https://www.wmata.com/js/nexttrain/nexttrain.html#K08|Vienna/Fairfax-GMU",
    "WEB_URL": "https://www.wmata.com/rider-guide/stations/vienna.cfm",
    "GIS_ID": "MetroStnFullPt_88",
    "MAR_ID": null,
    "GLOBALID": "{F8BE82AE-77F1-490D-828A-5CC68146E9A5}",
    "OBJECTID": 728,
    "CREATED": 1669840377000,
    "EDITED": 1669840377000,
    "SE_ANNO_CAD_DATA": null
   }
  },
  {
   "type": "Feature",
   "id": 729,
   "geometry": {
    "type": "Point",
    "coordinates": [
     -77.08499811291914,
     38.95949166976637
    ]
   },
   "properties": {
    "NAME": "Friendship Heights",
    "ADDRESS": "5337 WISCONSIN AVENUE NW, WASHINGTON, DC",
    "LINE": "red",
    "TRAININFO_URL": "https://www.wmata.com/js/nexttrain/nexttrain.html#A08|Friendship Heights",
    "WEB_URL": "https://www.wmata.com/rider-guide/stations/friendship-hghts.cfm",
    "GIS_ID": "MetroStnFullPt_89",
    "MAR_ID": 303188,
    "GLOBALID": "{0ACCBD99-2189-41AF-8DF7-9EE3D928A280}",
    "OBJECTID": 729,
    "CREATED": 1669840377000,
    "EDITED": 1669840377000,
    "SE_ANNO_CAD_DATA": null
   }
  },
  {
   "type": "Feature",
   "id": 701,
   "geometry": {
    "type": "Point",
    "coordinates": [
     -77.08713353535401,
     38.89018331326664
    ]
   },
   "properties": {
    "NAME": "Court House",
    "ADDRESS": "2100 WILSON BLVD, ARLINGTON, VA",
    "LINE": "orange, silver",
    "TRAININFO_URL": "https://www.wmata.com/js/nexttrain/nexttrain.html#K01|Court House",
    "WEB_URL": "https://www.wmata.com/rider-guide/stations/court-house.cfm",
    "GIS_ID": "MetroStnFullPt_9",
    "MAR_ID": null,
    "GLOBALID": "{9CEA453B-9DF3-4B96-AB11-B876AE364823}",
    "OBJECTID": 701,
    "CREATED": 1669840377000,
    "EDITED": 1669840377000,
    "SE_ANNO_CAD_DATA": null
   }
  },
  {
   "type": "Feature",
   "id": 730,
   "geometry": {
    "type": "Point",
    "coordinates": [
     -77.05954121553258,
     38.86189016412418
    ]
   },
   "properties": {
    "NAME": "Pentagon City",
    "ADDRESS": "1250 SOUTH HAYES ST., ARLINGTON, VA",
    "LINE": "blue, yellow",
    "TRAININFO_URL": "https://www.wmata.com/js/nexttrain/nexttrain.html#C08|Pentagon City",
    "WEB_URL": "https://www.wmata.com/rider-guide/stations/pentagon-city.cfm",
    "GIS_ID": "MetroStnFullPt_90",
    "MAR_ID": null,
    "GLOBALID": "{E5515706-3B68-4BD8-BEB0-5F06ADE2C133}",
    "OBJECTID": 730,
    "CREATED": 1669840377000,
    "EDITED": 1669840377000,
    "SE_ANNO_CAD_DATA": null
   }
  },
  {
   "type": "Feature",
   "id": 731,
   "geometry": {
    "type": "Point",
    "coordinates": [
     -77.02813428452357,
     38.89318865670786
    ]
   },
   "properties": {
    "NAME": "Federal Triangle",
    "ADDRESS": "350 12TH STREET NW, WASHINGTON, DC",
    "LINE": "blue, orange, silver",
    "TRAININFO_URL": "https://www.wmata.com/js/nexttrain/nexttrain.html#D01|Federal Triangle",
    "WEB_URL": "https://www.wmata.com/rider-guide/stations/federal-triangle.cfm",
    "GIS_ID": "MetroStnFullPt_91",
    "MAR_ID": 316345,
    "GLOBALID": "{D0D7FD22-7251-4825-AB18-55E5306155BC}",
    "OBJECTID": 731,
    "CREATED": 1669840377000,
    "EDITED": 1669840377000,
    "SE_ANNO_CAD_DATA": null
   }
  },
  {
   "type": "Feature",
   "id": 732,
   "geometry": {
    "type": "Point",
    "coordinates": [
     -77.36018739937013,
     38.95277578843207
    ]
   },
   "properties": {
    "NAME": "Reston Town Center",
    "ADDRESS": "12023-A SUNSET HILLS RD, RESTON, VA 20190",
    "LINE": "silver",
    "TRAININFO_URL": "https://www.wmata.com/js/nexttrain/nexttrain.html#N07|Reston%20Town%20Center",
    "WEB_URL": "https://www.wmata.com/rider-guide/stations/reston.cfm",
    "GIS_ID": "MetroStnFullPt_92",
    "MAR_ID": null,
    "GLOBALID": "{40100193-2EF7-48D3-96B1-62801C250A23}",
    "OBJECTID": 732,
    "CREATED": 1669840377000,
    "EDITED": 1669840377000,
    "SE_ANNO_CAD_DATA": null
   }
  },
  {
   "type": "Feature",
   "id": 733,
   "geometry": {
    "type": "Point",
    "coordinates": [
     -77.38518040938123,
     38.95282878221893
    ]
   },
   "properties": {
    "NAME": "Herndon",
    "ADDRESS": "585-A HERNDON PKY, HERNDON, VA 20170",
    "LINE": "silver",
    "TRAININFO_URL": "https://www.wmata.com/js/nexttrain/nexttrain.html#N08|Herndon",
    "WEB_URL": "https://www.wmata.com/rider-guide/stations/herndon.cfm",
    "GIS_ID": "MetroStnFullPt_93",
    "MAR_ID": null,
    "GLOBALID": "{1C5DABF0-3EBE-4B52-884A-6500900FFDDD}",
    "OBJECTID": 733,
    "CREATED": 1669840377000,
    "EDITED": 1669840377000,
    "SE_ANNO_CAD_DATA": null
   }
  },
  {
   "type": "Feature",
   "id": 734,
   "geometry": {
    "type": "Point",
    "coordinates": [
     -77.41529741726589,
     38.960765780680454
    ]
   },
   "properties": {
    "NAME": "Innovation Center",
    "ADDRESS": "13747-A SUNRISE VALLEY DR, HERNDON, VA 20171",
    "LINE": "silver",
    "TRAININFO_URL": "https://www.wmata.com/js/nexttrain/nexttrain.html#N09|Innovation%20Center",
    "WEB_URL": "https://www.wmata.com/rider-guide/stations/innovation-center.cfm",
    "GIS_ID": "MetroStnFullPt_94",
    "MAR_ID": null,
    "GLOBALID": "{44EC9DFA-82ED-49C0-8DAE-8FBFDF00B9E0}",
    "OBJECTID": 734,
    "CREATED": 1669840377000,
    "EDITED": 1669840377000,
    "SE_ANNO_CAD_DATA": null
   }
  },
  {
   "type": "Feature",
   "id": 735,
   "geometry": {
    "type": "Point",
    "coordinates": [
     -77.44815043095572,
     38.95579178330631
    ]
   },
   "properties": {
    "NAME": "Washington Dulles International Airport",
    "ADDRESS": "44920 SAARINEN CIR, DULLES, VA 20166",
    "LINE": "silver",
    "TRAININFO_URL": "https://www.wmata.com/js/nexttrain/nexttrain.html#N10|Washington%20Dulles%20International%20Airport",
    "WEB_URL": "https://www.wmata.com/rider-guide/stations/washington-dulles.cfm",
    "GIS_ID": "MetroStnFullPt_95",
    "MAR_ID": null,
    "GLOBALID": "{92F12286-0EB1-4911-AB70-A246401F35A9}",
    "OBJECTID": 735,
    "CREATED": 1669840377000,
    "EDITED": 1669840377000,
    "SE_ANNO_CAD_DATA": null
   }
  },
  {
   "type": "Feature",
   "id": 736,
   "geometry": {
    "type": "Point",
    "coordinates": [
     -77.46068743533155,
     38.99204778811289
    ]
   },
   "properties": {
    "NAME": "Loudoun Gateway",
    "ADDRESS": "22505-A LOCK RIDGE RD, STERLING, VA 20166",
    "LINE": "silver",
    "TRAININFO_URL": "https://www.wmata.com/js/nexttrain/nexttrain.html#N11|Loudoun%20Gateway",
    "WEB_URL": "https://www.wmata.com/rider-guide/stations/loudoun.cfm",
    "GIS_ID": "MetroStnFullPt_96",
    "MAR_ID": null,
    "GLOBALID": "{23354791-732C-4601-A04F-1C3A9248BDD7}",
    "OBJECTID": 736,
    "CREATED": 1669840377000,
    "EDITED": 1669840377000,
    "SE_ANNO_CAD_DATA": null
   }
  },
  {
   "type": "Feature",
   "id": 737,
   "geometry": {
    "type": "Point",
    "coordinates": [
     -77.49153943827612,
     39.00529079281844
    ]
   },
   "properties": {
    "NAME": "Ashburn",
    "ADDRESS": "43625-A CROSON LN, ASHBURN, VA 20147",
    "LINE": "silver",
    "TRAININFO_URL": "https://www.wmata.com/js/nexttrain/nexttrain.html#N12|Ashburn",
    "WEB_URL": "https://www.wmata.com/rider-guide/stations/ashburn.cfm",
    "GIS_ID": "MetroStnFullPt_97",
    "MAR_ID": null,
    "GLOBALID": "{89C0E9DF-6D64-4795-90CC-801E9AE1ED4B}",
    "OBJECTID": 737,
    "CREATED": 1669840377000,
    "EDITED": 1669840377000,
    "SE_ANNO_CAD_DATA": null
   }
  },
  {
   "type": "Feature",
   "id": 961,
   "geometry": {
    "type": "Point",
    "coordinates": [
     -77.04640667393114,
     38.83401369041139
    ]
   },
   "properties": {
    "NAME": "Potomac Yard",
    "ADDRESS": "2900 POTOMAC GREENS DRIVE, ALEXANDRIA, VA 22314 ",
    "LINE": "blue, yellow",
    "TRAININFO_URL": "https://www.wmata.com/js/nexttrain/nexttrain.html#C15|potomacyard",
    "WEB_URL": "https://www.wmata.com/rider-guide/stations/potomac-yard.cfm",
    "GIS_ID": "MetroStnFullPt_98",
    "MAR_ID": null,
    "GLOBALID": "{D6425905-9518-4AB6-8DB4-FC66125BA95C}",
    "OBJECTID": 961,
    "CREATED": 1684907440000,
    "EDITED": 1684912052000,
    "SE_ANNO_CAD_DATA": null
   }
  }
 ]
}
