{
 "type": "FeatureCollection",
 "features": [
  {
   "type": "Feature",
   "properties": {
    "ligne": "A",
    "code_trace": "A-1",
    "nom_trace": "Perrache - Vaulx-en-Velin La Soie",
    "sens": "Aller",
    "couleur_hex": "#E8308A"
   },
   "geometry": {
    "type": "MultiLineString",
    "coordinates": [
     [
      [
       4.82687439,
       45.74960635
      ],
      [
       4.82724605,
       45.75001549
      ],
      [
       4.82756018,
       45.75036129
      ],
      [
       4.8277632,
       45.7506378
      ],
      [
       4.828437,
       45.75169455
      ],
      [
       4.82902409,
       45.7526389
      ],
      [
       4.82946728,
       45.75341021
      ],
      [
       4.82978986,
       45.75392222
      ],
      [
       4.82995828,
       45.75418522
      ],
      [
       4.83045652,
       45.75496959
      ],
      [
       4.83079379,
       45.75550509
      ],
      [
       4.83132971,
       45.7563696
      ],
      [
       4.83157831,
       45.75674989
      ],
      [
       4.83170822,
       45.75691371
      ],
      [
       4.83185766,
       45.75705804
      ],
      [
       4.83206127,
       45.75719641
      ],
      [
       4.83232498,
       45.75730963
      ],
      [
       4.83263671,
       45.7574313
      ],
      [
       4.83340951,
       45.75766656
      ],
      [
       4.83382429,
       45.75780976
      ],
      [
       4.83404679,
       45.75791436
      ],
      [
       4.8342844,
       45.75805196
      ],
      [
       4.83445511,
       45.75821488
      ],
      [
       4.83458568,
       45.75839297
      ],
      [
       4.83475478,
       45.75867023
      ],
      [
       4.83527083,
       45.75954469
      ],
      [
       4.83541889,
       45.75980813
      ],
      [
       4.8355321,
       45.76005329
      ],
      [
       4.83562665,
       45.76033697
      ],
      [
       4.83570231,
       45.76065442
      ],
      [
       4.8357333,
       45.76088712
      ],
      [
       4.83577792,
       45.76171968
      ],
      [
       4.83582082,
       45.76251417
      ],
      [
       4.83587552,
       45.76324794
      ],
      [
       4.83595543,
       45.76457837
      ],
      [
       4.83601865,
       45.76582014
      ],
      [
       4.83606091,
       45.76660035
      ],
      [
       4.83610456,
       45.76726146
      ],
      [
       4.83612801,
       45.7676277
      ],
      [
       4.83615641,
       45.7678033
      ],
      [
       4.8362256,
       45.76797799
      ],
      [
       4.83634173,
       45.76813736
      ],
      [
       4.83646996,
       45.76826311
      ],
      [
       4.83665236,
       45.76838289
      ],
      [
       4.83684048,
       45.76847872
      ],
      [
       4.83719879,
       45.76857553
      ],
      [
       4.83751415,
       45.76862567
      ],
      [
       4.83837171,
       45.76862562
      ],
      [
       4.84033312,
       45.76865334
      ],
      [
       4.8415587,
       45.76866411
      ],
      [
       4.84291281,
       45.76865771
      ],
      [
       4.84356748,
       45.76868596
      ],
      [
       4.84402476,
       45.76871386
      ],
      [
       4.84547421,
       45.76885772
      ],
      [
       4.84637605,
       45.76893283
      ],
      [
       4.84850211,
       45.76913773
      ],
      [
       4.84977328,
       45.76925218
      ],
      [
       4.85131115,
       45.76939399
      ],
      [
       4.85266692,
       45.76951193
      ],
      [
       4.85396319,
       45.7696394
      ],
      [
       4.85522078,
       45.7697541
      ],
      [
       4.85646566,
       45.76988811
      ],
      [
       4.85756667,
       45.77000153
      ],
      [
       4.85912629,
       45.77017132
      ],
      [
       4.8596599,
       45.77023078
      ],
      [
       4.859981,
       45.7702569
      ],
      [
       4.86037732,
       45.77029087
      ],
      [
       4.86076576,
       45.77030119
      ],
      [
       4.86116121,
       45.77031611
      ],
      [
       4.8615163,
       45.77034147
      ],
      [
       4.86272568,
       45.77044288
      ],
      [
       4.86383264,
       45.77053705
      ],
      [
       4.8648931,
       45.77065607
      ],
      [
       4.86587767,
       45.77075298
      ],
      [
       4.86631298,
       45.7708
      ],
      [
       4.86675324,
       45.77084757
      ],
      [
       4.86756082,
       45.77094368
      ],
      [
       4.86824448,
       45.77100924
      ],
      [
       4.8687904,
       45.7710398
      ],
      [
       4.86936966,
       45.77105532
      ],
      [
       4.86978508,
       45.77106024
      ],
      [
       4.87022726,
       45.77105502
      ],
      [
       4.87086574,
       45.77102632
      ],
      [
       4.87135377,
       45.77098197
      ],
      [
       4.87189574,
       45.77092686
      ],
      [
       4.87248399,
       45.77084213
      ],
      [
       4.87332119,
       45.77069461
      ],
      [
       4.87452269,
       45.77047693
      ],
      [
       4.87574413,
       45.77024927
      ],
      [
       4.87680371,
       45.77005382
      ],
      [
       4.87816046,
       45.76980878
      ],
      [
       4.87930094,
       45.76959719
      ],
      [
       4.8805763,
       45.76935872
      ],
      [
       4.88154154,
       45.76918442
      ],
      [
       4.88268073,
       45.76896952
      ],
      [
       4.88402488,
       45.76872324
      ],
      [
       4.88533419,
       45.76848394
      ],
      [
       4.88645423,
       45.76827274
      ],
      [
       4.88691551,
       45.76818404
      ],
      [
       4.8892011,
       45.76777211
      ],
      [
       4.89069919,
       45.76749512
      ],
      [
       4.89181619,
       45.7672856
      ],
      [
       4.89341548,
       45.76698795
      ],
      [
       4.89505497,
       45.7666886
      ],
      [
       4.89616509,
       45.76648469
      ],
      [
       4.89717057,
       45.76629981
      ],
      [
       4.89826376,
       45.76609863
      ],
      [
       4.89935037,
       45.76590236
      ],
      [
       4.90055845,
       45.76568425
      ],
      [
       4.9016446,
       45.76547844
      ],
      [
       4.90316953,
       45.76519591
      ],
      [
       4.90564264,
       45.76474287
      ],
      [
       4.90684257,
       45.76452304
      ],
      [
       4.90747453,
       45.76440199
      ],
      [
       4.90827709,
       45.76424548
      ],
      [
       4.90987956,
       45.76390634
      ],
      [
       4.91198893,
       45.76348948
      ],
      [
       4.9133718,
       45.76320141
      ],
      [
       4.91475165,
       45.76284931
      ],
      [
       4.91599203,
       45.76245232
      ],
      [
       4.91750529,
       45.76201701
      ],
      [
       4.92109509,
       45.76095711
      ]
     ]
    ]
   }
  },
  {
   "type": "Feature",
   "properties": {
    "ligne": "A",
    "code_trace": "A-2",
    "nom_trace": "Vaulx-en-Velin La Soie - Perrache",
    "sens": "Retour",
    "couleur_hex": "#E8308A"
   },
   "geometry": {
    "type": "MultiLineString",
    "coordinates": [
     [
      [
       4.92109509,
       45.76095711
      ],
      [
       4.91750529,
       45.76201701
      ],
      [
       4.91599203,
       45.76245232
      ],
      [
       4.91475165,
       45.76284931
      ],
      [
       4.9133718,
       45.76320141
      ],
      [
       4.91198893,
       45.76348948
      ],
      [
       4.90987956,
       45.76390634
      ],
      [
       4.90827709,
       45.76424548
      ],
      [
       4.90747453,
       45.76440199
      ],
      [
       4.90684257,
       45.76452304
      ],
      [
       4.90564264,
       45.76474287
      ],
      [
       4.90316953,
       45.76519591
      ],
      [
       4.9016446,
       45.76547844
      ],
      [
       4.90055845,
       45.76568425
      ],
      [
       4.89935037,
       45.76590236
      ],
      [
       4.89826376,
       45.76609863
      ],
      [
       4.89717057,
       45.76629981
      ],
      [
       4.89616509,
       45.76648469
      ],
      [
       4.89505497,
       45.7666886
      ],
      [
       4.89341548,
       45.76698795
      ],
      [
       4.89181619,
       45.7672856
      ],
      [
       4.89069919,
       45.76749512
      ],
      [
       4.8892011,
       45.76777211
      ],
      [
       4.88691551,
       45.76818404
      ],
      [
       4.88645423,
       45.76827274
      ],
      [
       4.88533419,
       45.76848394
      ],
      [
       4.88402488,
       45.76872324
      ],
      [
       4.88268073,
       45.76896952
      ],
      [
       4.88154154,
       45.76918442
      ],
      [
       4.8805763,
       45.76935872
      ],
      [
       4.87930094,
       45.76959719
      ],
      [
       4.87816046,
       45.76980878
      ],
      [
       4.87680371,
       45.77005382
      ],
      [
       4.87574413,
       45.77024927
      ],
      [
       4.87452269,
       45.77047693
      ],
      [
       4.87332119,
       45.77069461
      ],
      [
       4.87248399,
       45.77084213
      ],
      [
       4.87189574,
       45.77092686
      ],
      [
       4.87135377,
       45.77098197
      ],
      [
       4.87086574,
       45.77102632
      ],
      [
       4.87022726,
       45.77105502
      ],
      [
       4.86978508,
       45.77106024
      ],
      [
       4.86936966,
       45.77105532
      ],
      [
       4.8687904,
       45.7710398
      ],
      [
       4.86824448,
       45.77100924
      ],
      [
       4.86756082,
       45.77094368
      ],
      [
       4.86675324,
       45.77084757
      ],
      [
       4.86631298,
       45.7708
      ],
      [
       4.86587767,
       45.77075298
      ],
      [
       4.8648931,
       45.77065607
      ],
      [
       4.86383264,
       45.77053705
      ],
      [
       4.86272568,
       45.77044288
      ],
      [
       4.8615163,
       45.77034147
      ],
      [
       4.86116121,
       45.77031611
      ],
      [
       4.86076576,
       45.77030119
      ],
      [
       4.86037732,
       45.77029087
      ],
      [
       4.859981,
       45.7702569
      ],
      [
       4.8596599,
       45.77023078
      ],
      [
       4.85912629,
       45.77017132
      ],
      [
       4.85756667,
       45.77000153
      ],
      [
       4.85646566,
       45.76988811
      ],
      [
       4.85522078,
       45.7697541
      ],
      [
       4.85396319,
       45.7696394
      ],
      [
       4.85266692,
       45.76951193
      ],
      [
       4.85131115,
       45.76939399
      ],
      [
       4.84977328,
       45.76925218
      ],
      [
       4.84850211,
       45.76913773
      ],
      [
       4.84637605,
       45.76893283
      ],
      [
       4.84547421,
       45.76885772
      ],
      [
       4.84402476,
       45.76871386
      ],
      [
       4.84356748,
       45.76868596
      ],
      [
       4.84291281,
       45.76865771
      ],
      [
       4.8415587,
       45.76866411
      ],
      [
       4.84033312,
       45.76865334
      ],
      [
       4.83837171,
       45.76862562
      ],
      [
       4.83751415,
       45.76862567
      ],
      [
       4.83719879,
       45.76857553
      ],
      [
       4.83684048,
       45.76847872
      ],
      [
       4.83665236,
       45.76838289
      ],
      [
       4.83646996,
       45.76826311
      ],
      [
       4.83634173,
       45.76813736
      ],
      [
       4.8362256,
       45.76797799
      ],
      [
       4.83615641,
       45.7678033
      ],
      [
       4.83612801,
       45.7676277
      ],
      [
       4.83610456,
       45.76726146
      ],
      [
       4.83606091,
       45.76660035
      ],
      [
       4.83601865,
       45.76582014
      ],
      [
       4.83595543,
       45.76457837
      ],
      [
       4.83587552,
       45.76324794
      ],
      [
       4.83582082,
       45.76251417
      ],
      [
       4.83577792,
       45.76171968
      ],
      [
       4.8357333,
       45.76088712
      ],
      [
       4.83570231,
       45.76065442
      ],
      [
       4.83562665,
       45.76033697
      ],
      [
       4.8355321,
       45.76005329
      ],
      [
       4.83541889,
       45.75980813
      ],
      [
       4.83527083,
       45.75954469
      ],
      [
       4.83475478,
       45.75867023
      ],
      [
       4.83458568,
       45.75839297
      ],
      [
       4.83445511,
       45.75821488
      ],
      [
       4.8342844,
       45.75805196
      ],
      [
       4.83404679,
       45.75791436
      ],
      [
       4.83382429,
       45.75780976
      ],
      [
       4.83340951,
       45.75766656
      ],
      [
       4.83263671,
       45.7574313
      ],
      [
       4.83232498,
       45.75730963
      ],
      [
       4.83206127,
       45.75719641
      ],
      [
       4.83185766,
       45.75705804
      ],
      [
       4.83170822,
       45.75691371
      ],
      [
       4.83157831,
       45.75674989
      ],
      [
       4.83132971,
       45.7563696
      ],
      [
       4.83079379,
       45.75550509
      ],
      [
       4.83045652,
       45.75496959
      ],
      [
       4.82995828,
       45.75418522
      ],
      [
       4.82978986,
       45.75392222
      ],
      [
       4.82946728,
       45.75341021
      ],
      [
       4.82902409,
       45.7526389
      ],
      [
       4.828437,
       45.75169455
      ],
      [
       4.8277632,
       45.7506378
      ],
      [
       4.82756018,
       45.75036129
      ],
      [
       4.82721894,
       45.74998565
      ],
      [
       4.82687439,
       45.74960635
      ]
     ]
    ]
   }
  },
  {
   "type": "Feature",
   "properties": {
    "ligne": "B",
    "code_trace": "B-3",
    "nom_trace": "Charpennes Charles Hernu . - ST-GENIS-LAVAL Hop. Sud",
    "sens": "Aller",
    "couleur_hex": "#0075BF"
   },
   "geometry": {
    "type": "MultiLineString",
    "coordinates": [
     [
      [
       4.86317597,
       45.77044057
      ],
      [
       4.86098643,
       45.76933562
      ],
      [
       4.85986438,
       45.76873017
      ],
      [
       4.85941415,
       45.76845811
      ],
      [
       4.85922889,
       45.76820693
      ],
      [
       4.8592695,
       45.76768046
      ],
      [
       4.85943348,
       45.76635234
      ],
      [
       4.85956859,
       45.76508797
      ],
      [
       4.85958666,
       45.76390674
      ],
      [
       4.85959399,
       45.76283503
      ],
      [
       4.85950816,
       45.76255277
      ],
      [
       4.85935006,
       45.7623253
      ],
      [
       4.85917601,
       45.76212858
      ],
      [
       4.85875362,
       45.76190435
      ],
      [
       4.85826651,
       45.76172075
      ],
      [
       4.85731861,
       45.76159072
      ],
      [
       4.85606219,
       45.76146761
      ],
      [
       4.85406238,
       45.76129631
      ],
      [
       4.85152855,
       45.76107055
      ],
      [
       4.84997177,
       45.76081314
      ],
      [
       4.84882815,
       45.76045878
      ],
      [
       4.84809102,
       45.7598615
      ],
      [
       4.84744132,
       45.75934994
      ],
      [
       4.84694686,
       45.75894321
      ],
      [
       4.84657025,
       45.7586289
      ],
      [
       4.84613265,
       45.75812243
      ],
      [
       4.84606697,
       45.75759781
      ],
      [
       4.84619185,
       45.75699801
      ],
      [
       4.84637578,
       45.75629137
      ],
      [
       4.84649392,
       45.7558348
      ],
      [
       4.84663926,
       45.75532194
      ],
      [
       4.84686038,
       45.7545649
      ],
      [
       4.8470063,
       45.75386709
      ],
      [
       4.84692223,
       45.75366035
      ],
      [
       4.84671488,
       45.75331256
      ],
      [
       4.82932924,
       45.72413497
      ],
      [
       4.82881095,
       45.72339159
      ],
      [
       4.82818669,
       45.72236519
      ],
      [
       4.82768823,
       45.72171895
      ],
      [
       4.8269656,
       45.72107769
      ],
      [
       4.82544404,
       45.71991116
      ],
      [
       4.82403985,
       45.71897063
      ],
      [
       4.82240999,
       45.71811368
      ],
      [
       4.82114787,
       45.71772011
      ],
      [
       4.82008294,
       45.71749113
      ],
      [
       4.81631803,
       45.7169196
      ],
      [
       4.81534526,
       45.71677662
      ],
      [
       4.81531255,
       45.7167738
      ],
      [
       4.81307137,
       45.71658077
      ],
      [
       4.81106651,
       45.71648417
      ],
      [
       4.81067312,
       45.71646521
      ],
      [
       4.81023977,
       45.71644065
      ],
      [
       4.80984286,
       45.71641814
      ],
      [
       4.80952691,
       45.71640328
      ],
      [
       4.80917083,
       45.71638653
      ],
      [
       4.80897552,
       45.71633035
      ],
      [
       4.80874826,
       45.71624109
      ],
      [
       4.80855636,
       45.71613592
      ],
      [
       4.8078487,
       45.7157481
      ],
      [
       4.80763066,
       45.7156286
      ],
      [
       4.80736936,
       45.71548539
      ],
      [
       4.80684021,
       45.71519539
      ],
      [
       4.80653793,
       45.71502972
      ],
      [
       4.80627758,
       45.71488703
      ],
      [
       4.80607182,
       45.71478004
      ],
      [
       4.80568528,
       45.71457906
      ],
      [
       4.80524435,
       45.71434979
      ],
      [
       4.80489541,
       45.71416835
      ],
      [
       4.80465694,
       45.7139772
      ],
      [
       4.80444143,
       45.71381183
      ],
      [
       4.80409713,
       45.71354761
      ],
      [
       4.80390637,
       45.71340122
      ],
      [
       4.80376493,
       45.7132979
      ],
      [
       4.80338533,
       45.71302204
      ],
      [
       4.80297675,
       45.71272511
      ],
      [
       4.80275009,
       45.71256039
      ],
      [
       4.80261542,
       45.71246252
      ],
      [
       4.80238471,
       45.71213816
      ],
      [
       4.80234187,
       45.71207794
      ],
      [
       4.80227334,
       45.71185042
      ],
      [
       4.8021995,
       45.71145868
      ],
      [
       4.8021903,
       45.7112326
      ],
      [
       4.80218119,
       45.71100888
      ],
      [
       4.80222962,
       45.71053518
      ],
      [
       4.80226476,
       45.71019143
      ],
      [
       4.80229973,
       45.70996825
      ],
      [
       4.80247347,
       45.70885946
      ],
      [
       4.8027683,
       45.70697781
      ],
      [
       4.80279292,
       45.70682066
      ],
      [
       4.8028078,
       45.70672564
      ],
      [
       4.80280818,
       45.70662074
      ],
      [
       4.80280963,
       45.70621125
      ],
      [
       4.80281003,
       45.70609966
      ],
      [
       4.80281274,
       45.70602206
      ],
      [
       4.80281612,
       45.70592667
      ],
      [
       4.80305288,
       45.70496366
      ],
      [
       4.80326129,
       45.70411587
      ],
      [
       4.80336451,
       45.70369601
      ],
      [
       4.80337849,
       45.70362598
      ],
      [
       4.8034677,
       45.70317936
      ],
      [
       4.80351176,
       45.7029588
      ],
      [
       4.80361651,
       45.70273248
      ],
      [
       4.80364868,
       45.70266299
      ],
      [
       4.80370111,
       45.70259982
      ],
      [
       4.80389464,
       45.70236663
      ],
      [
       4.80394308,
       45.70230827
      ],
      [
       4.80398305,
       45.70224431
      ],
      [
       4.80413068,
       45.70200805
      ],
      [
       4.80424089,
       45.70183632
      ],
      [
       4.80516569,
       45.7003976
      ]
     ]
    ]
   }
  },
  {
   "type": "Feature",
   "properties": {
    "ligne": "B",
    "code_trace": "B-4",
    "nom_trace": "ST-GENIS-LAVAL Hop. Sud. - Charpennes Charles Hernu .",
    "sens": "Retour",
    "couleur_hex": "#0075BF"
   },
   "geometry": {
    "type": "MultiLineString",
    "coordinates": [
     [
      [
       4.80516569,
       45.7003976
      ],
      [
       4.80413696,
       45.701998
      ],
      [
       4.80394308,
       45.70230827
      ],
      [
       4.80364868,
       45.70266299
      ],
      [
       4.80351176,
       45.7029588
      ],
      [
       4.80336451,
       45.70369601
      ],
      [
       4.80281612,
       45.70592667
      ],
      [
       4.80281003,
       45.70609838
      ],
      [
       4.8028078,
       45.70672564
      ],
      [
       4.80226476,
       45.71019143
      ],
      [
       4.80218119,
       45.71100888
      ],
      [
       4.8021995,
       45.71145868
      ],
      [
       4.80227334,
       45.71185042
      ],
      [
       4.80234187,
       45.71207794
      ],
      [
       4.80261542,
       45.71246252
      ],
      [
       4.80282017,
       45.71261132
      ],
      [
       4.80389332,
       45.71339121
      ],
      [
       4.80465694,
       45.7139772
      ],
      [
       4.80489541,
       45.71416835
      ],
      [
       4.80524435,
       45.71434979
      ],
      [
       4.80627758,
       45.71488703
      ],
      [
       4.80874826,
       45.71624109
      ],
      [
       4.80897552,
       45.71633035
      ],
      [
       4.80917083,
       45.71638653
      ],
      [
       4.80939647,
       45.71639714
      ],
      [
       4.80984286,
       45.71641814
      ],
      [
       4.81067312,
       45.71646521
      ],
      [
       4.81307137,
       45.71658077
      ],
      [
       4.81534526,
       45.71677662
      ],
      [
       4.81631803,
       45.7169196
      ],
      [
       4.82008294,
       45.71749113
      ],
      [
       4.82114787,
       45.71772011
      ],
      [
       4.82240999,
       45.71811368
      ],
      [
       4.82403985,
       45.71897063
      ],
      [
       4.82544404,
       45.71991116
      ],
      [
       4.8269656,
       45.72107769
      ],
      [
       4.82768823,
       45.72171895
      ],
      [
       4.82818669,
       45.72236519
      ],
      [
       4.82881095,
       45.72339159
      ],
      [
       4.82932924,
       45.72413497
      ],
      [
       4.84671488,
       45.75331256
      ],
      [
       4.84692223,
       45.75366035
      ],
      [
       4.8470063,
       45.75386709
      ],
      [
       4.84686038,
       45.7545649
      ],
      [
       4.84663926,
       45.75532194
      ],
      [
       4.84649392,
       45.7558348
      ],
      [
       4.84637578,
       45.75629137
      ],
      [
       4.84619185,
       45.75699801
      ],
      [
       4.84606697,
       45.75759781
      ],
      [
       4.84613265,
       45.75812243
      ],
      [
       4.84657025,
       45.7586289
      ],
      [
       4.84694686,
       45.75894321
      ],
      [
       4.84744132,
       45.75934994
      ],
      [
       4.84809102,
       45.7598615
      ],
      [
       4.84882815,
       45.76045878
      ],
      [
       4.84997177,
       45.76081314
      ],
      [
       4.85152855,
       45.76107055
      ],
      [
       4.85406238,
       45.76129631
      ],
      [
       4.85606219,
       45.76146761
      ],
      [
       4.85731861,
       45.76159072
      ],
      [
       4.85826651,
       45.76172075
      ],
      [
       4.85875362,
       45.76190435
      ],
      [
       4.85917601,
       45.76212858
      ],
      [
       4.85935006,
       45.7623253
      ],
      [
       4.85950816,
       45.76255277
      ],
      [
       4.85959399,
       45.76283503
      ],
      [
       4.85958666,
       45.76390674
      ],
      [
       4.85956859,
       45.76508797
      ],
      [
       4.85943348,
       45.76635234
      ],
      [
       4.8592695,
       45.76768046
      ],
      [
       4.85922889,
       45.76820693
      ],
      [
       4.85941415,
       45.76845811
      ],
      [
       4.85986438,
       45.76873017
      ],
      [
       4.86098643,
       45.76933562
      ],
      [
       4.86317597,
       45.77044057
      ]
     ]
    ]
   }
  },
  {
   "type": "Feature",
   "properties": {
    "ligne": "C",
    "code_trace": "C-1",
    "nom_trace": "Hôtel de Ville  Louis Pradel - Cuire",
    "sens": "Aller",
    "couleur_hex": "#EC6608"
   },
   "geometry": {
    "type": "MultiLineString",
    "coordinates": [
     [
      [
       4.83606602,
       45.76798402
      ],
      [
       4.83582871,
       45.76902543
      ],
      [
       4.83578818,
       45.76944991
      ],
      [
       4.83584849,
       45.76973386
      ],
      [
       4.83610563,
       45.77007529
      ],
      [
       4.83631246,
       45.77034719
      ],
      [
       4.83636252,
       45.77068446
      ],
      [
       4.83622322,
       45.77098164
      ],
      [
       4.83584191,
       45.77141788
      ],
      [
       4.83520436,
       45.77210043
      ],
      [
       4.83410252,
       45.77324928
      ],
      [
       4.83338098,
       45.77401241
      ],
      [
       4.83315511,
       45.77423772
      ],
      [
       4.83294238,
       45.77444991
      ],
      [
       4.83266038,
       45.77454975
      ],
      [
       4.83235504,
       45.77455654
      ],
      [
       4.83193218,
       45.7744991
      ],
      [
       4.8315649,
       45.77442754
      ],
      [
       4.83112584,
       45.77441008
      ],
      [
       4.83072751,
       45.77447239
      ],
      [
       4.83046943,
       45.77467863
      ],
      [
       4.83021558,
       45.77497835
      ],
      [
       4.83010137,
       45.77540864
      ],
      [
       4.82994172,
       45.77567953
      ],
      [
       4.82955809,
       45.77615266
      ],
      [
       4.82918135,
       45.77665723
      ],
      [
       4.82879516,
       45.77721087
      ],
      [
       4.82853419,
       45.77757938
      ],
      [
       4.82807902,
       45.7782065
      ],
      [
       4.82774655,
       45.77861196
      ],
      [
       4.82764129,
       45.77880006
      ],
      [
       4.82755116,
       45.77899419
      ],
      [
       4.82743537,
       45.77981216
      ],
      [
       4.82743927,
       45.78032003
      ],
      [
       4.82747665,
       45.78069706
      ],
      [
       4.82752531,
       45.78086501
      ],
      [
       4.82762387,
       45.78104202
      ],
      [
       4.82801755,
       45.78165837
      ],
      [
       4.82819712,
       45.78186718
      ],
      [
       4.82861608,
       45.7822589
      ],
      [
       4.82932159,
       45.78279528
      ],
      [
       4.8300187,
       45.78332849
      ],
      [
       4.8326045,
       45.78531947
      ]
     ]
    ]
   }
  },
  {
   "type": "Feature",
   "properties": {
    "ligne": "C",
    "code_trace": "C-2",
    "nom_trace": "Cuire - Hôtel de Ville  Louis Pradel",
    "sens": "Retour",
    "couleur_hex": "#EC6608"
   },
   "geometry": {
    "type": "MultiLineString",
    "coordinates": [
     [
      [
       4.8326045,
       45.78531947
      ],
      [
       4.82994415,
       45.78327109
      ],
      [
       4.82932159,
       45.78279528
      ],
      [
       4.82861608,
       45.7822589
      ],
      [
       4.82819712,
       45.78186718
      ],
      [
       4.82801703,
       45.78165776
      ],
      [
       4.82762387,
       45.78104202
      ],
      [
       4.82752531,
       45.78086501
      ],
      [
       4.82747665,
       45.78069706
      ],
      [
       4.82743927,
       45.78032003
      ],
      [
       4.82743537,
       45.77981216
      ],
      [
       4.82755116,
       45.77899419
      ],
      [
       4.82764129,
       45.77880006
      ],
      [
       4.82774655,
       45.77861196
      ],
      [
       4.82807902,
       45.7782065
      ],
      [
       4.82853419,
       45.77757938
      ],
      [
       4.82879516,
       45.77721087
      ],
      [
       4.82918135,
       45.77665723
      ],
      [
       4.82955809,
       45.77615266
      ],
      [
       4.82994172,
       45.77567953
      ],
      [
       4.83010137,
       45.77540864
      ],
      [
       4.83021558,
       45.77497835
      ],
      [
       4.83046943,
       45.77467863
      ],
      [
       4.83072751,
       45.77447239
      ],
      [
       4.83112584,
       45.77441008
      ],
      [
       4.8315649,
       45.77442754
      ],
      [
       4.83193218,
       45.7744991
      ],
      [
       4.83235504,
       45.77455654
      ],
      [
       4.83266038,
       45.77454975
      ],
      [
       4.83294238,
       45.77444991
      ],
      [
       4.83315511,
       45.77423772
      ],
      [
       4.83338098,
       45.77401241
      ],
      [
       4.83410252,
       45.77324928
      ],
      [
       4.83520436,
       45.77210043
      ],
      [
       4.83584191,
       45.77141788
      ],
      [
       4.83622322,
       45.77098164
      ],
      [
       4.83636252,
       45.77068446
      ],
      [
       4.83631246,
       45.77034719
      ],
      [
       4.83610563,
       45.77007529
      ],
      [
       4.83584849,
       45.76973386
      ],
      [
       4.83578818,
       45.76944991
      ],
      [
       4.83582871,
       45.76902543
      ],
      [
       4.83606602,
       45.76798402
      ]
     ]
    ]
   }
  },
  {
   "type": "Feature",
   "properties": {
    "ligne": "D",
    "code_trace": "D-1",
    "nom_trace": "Gare de Vaise - Gare de Vénissieux",
    "sens": "Aller",
    "couleur_hex": "#009E3D"
   },
   "geometry": {
    "type": "MultiLineString",
    "coordinates": [
     [
      [
       4.80444772,
       45.7806884
      ],
      [
       4.80397477,
       45.78016994
      ],
      [
       4.80336737,
       45.77952836
      ],
      [
       4.80313858,
       45.7791702
      ],
      [
       4.80302003,
       45.77880366
      ],
      [
       4.80301889,
       45.77839883
      ],
      [
       4.80314527,
       45.77799119
      ],
      [
       4.8033208,
       45.77773132
      ],
      [
       4.80349821,
       45.77751308
      ],
      [
       4.80391866,
       45.7772121
      ],
      [
       4.80418427,
       45.77706338
      ],
      [
       4.80456541,
       45.77683471
      ],
      [
       4.80479568,
       45.77665699
      ],
      [
       4.80500664,
       45.77643487
      ],
      [
       4.80512791,
       45.7762865
      ],
      [
       4.8051895,
       45.77614225
      ],
      [
       4.80528296,
       45.77594967
      ],
      [
       4.80533152,
       45.7757045
      ],
      [
       4.80535351,
       45.77543609
      ],
      [
       4.80536317,
       45.77470355
      ],
      [
       4.80534097,
       45.77401935
      ],
      [
       4.80528931,
       45.77343701
      ],
      [
       4.80529604,
       45.77306212
      ],
      [
       4.80535754,
       45.77211375
      ],
      [
       4.80540552,
       45.77166616
      ],
      [
       4.80544606,
       45.77124254
      ],
      [
       4.80550253,
       45.77079476
      ],
      [
       4.80554664,
       45.76969233
      ],
      [
       4.80556804,
       45.7692215
      ],
      [
       4.8055571,
       45.76897764
      ],
      [
       4.80552199,
       45.76876407
      ],
      [
       4.80536915,
       45.76820181
      ],
      [
       4.8053513,
       45.76799382
      ],
      [
       4.80533586,
       45.76783936
      ],
      [
       4.80537454,
       45.76737411
      ],
      [
       4.80547871,
       45.76647279
      ],
      [
       4.80553121,
       45.76612631
      ],
      [
       4.8055835,
       45.76596441
      ],
      [
       4.80570906,
       45.76572945
      ],
      [
       4.8058296,
       45.765572
      ],
      [
       4.8060014,
       45.76541937
      ],
      [
       4.80619949,
       45.76528403
      ],
      [
       4.80639945,
       45.76519032
      ],
      [
       4.80679354,
       45.76506258
      ],
      [
       4.80979167,
       45.76419876
      ],
      [
       4.81215984,
       45.76351546
      ],
      [
       4.81491458,
       45.76272831
      ],
      [
       4.8186347,
       45.76165779
      ],
      [
       4.81942492,
       45.76144979
      ],
      [
       4.81987074,
       45.76133871
      ],
      [
       4.82034233,
       45.76123302
      ],
      [
       4.82113393,
       45.76106011
      ],
      [
       4.82241695,
       45.76083582
      ],
      [
       4.82366697,
       45.76064586
      ],
      [
       4.82460165,
       45.76050557
      ],
      [
       4.82524192,
       45.76041263
      ],
      [
       4.82587601,
       45.76032062
      ],
      [
       4.82678137,
       45.76018916
      ],
      [
       4.82726667,
       45.76010913
      ],
      [
       4.82738368,
       45.7600931
      ],
      [
       4.82804442,
       45.76000257
      ],
      [
       4.82857627,
       45.75991336
      ],
      [
       4.82904648,
       45.75977789
      ],
      [
       4.82955702,
       45.75959389
      ],
      [
       4.83003168,
       45.75936901
      ],
      [
       4.83030143,
       45.75920895
      ],
      [
       4.83099805,
       45.75879561
      ],
      [
       4.83156407,
       45.75845974
      ],
      [
       4.83239196,
       45.75795907
      ],
      [
       4.83254855,
       45.75784842
      ],
      [
       4.83271256,
       45.75771379
      ],
      [
       4.83288426,
       45.75756112
      ],
      [
       4.83323453,
       45.75721992
      ],
      [
       4.83370874,
       45.75679855
      ],
      [
       4.83401867,
       45.75650587
      ],
      [
       4.83431566,
       45.75630278
      ],
      [
       4.83483113,
       45.75604125
      ],
      [
       4.83528457,
       45.75591208
      ],
      [
       4.83583228,
       45.75579867
      ],
      [
       4.83632429,
       45.75576985
      ],
      [
       4.83684396,
       45.75578805
      ],
      [
       4.83814497,
       45.75596745
      ],
      [
       4.83867475,
       45.75602114
      ],
      [
       4.83919659,
       45.75608691
      ],
      [
       4.83941037,
       45.75611191
      ],
      [
       4.83970089,
       45.75614116
      ],
      [
       4.83995661,
       45.75615331
      ],
      [
       4.84021206,
       45.75615953
      ],
      [
       4.84050865,
       45.75613505
      ],
      [
       4.84080469,
       45.75609868
      ],
      [
       4.84107443,
       45.75604503
      ],
      [
       4.84138557,
       45.75596664
      ],
      [
       4.84373003,
       45.7551522
      ],
      [
       4.84795081,
       45.75370631
      ],
      [
       4.85057166,
       45.75280219
      ],
      [
       4.85377873,
       45.75170028
      ],
      [
       4.85597208,
       45.7509366
      ],
      [
       4.86059401,
       45.74935023
      ],
      [
       4.8627203,
       45.74861174
      ],
      [
       4.86528228,
       45.7477324
      ],
      [
       4.87232267,
       45.7453051
      ],
      [
       4.87312615,
       45.74502497
      ],
      [
       4.87728646,
       45.74359122
      ],
      [
       4.87838144,
       45.74317942
      ],
      [
       4.8790673,
       45.74293168
      ],
      [
       4.87961095,
       45.74273479
      ],
      [
       4.87988853,
       45.74266896
      ],
      [
       4.88040998,
       45.74254402
      ],
      [
       4.88079744,
       45.74246379
      ],
      [
       4.88125369,
       45.74239986
      ],
      [
       4.88186173,
       45.74230867
      ],
      [
       4.88229221,
       45.74223936
      ],
      [
       4.88258732,
       45.74218504
      ],
      [
       4.88292354,
       45.74210001
      ],
      [
       4.88325864,
       45.74199119
      ],
      [
       4.88360854,
       45.74183439
      ],
      [
       4.88387321,
       45.74167358
      ],
      [
       4.88430883,
       45.74134813
      ],
      [
       4.88454416,
       45.74110463
      ],
      [
       4.88472824,
       45.74085634
      ],
      [
       4.88521088,
       45.74007731
      ],
      [
       4.88545795,
       45.73972041
      ],
      [
       4.88553027,
       45.73962946
      ],
      [
       4.88561929,
       45.73953217
      ],
      [
       4.88584584,
       45.73928291
      ],
      [
       4.88635728,
       45.73875925
      ],
      [
       4.88752558,
       45.73754785
      ],
      [
       4.88808574,
       45.73697544
      ],
      [
       4.88833146,
       45.73677337
      ],
      [
       4.8887818,
       45.73639994
      ],
      [
       4.8889541,
       45.73626503
      ],
      [
       4.88914968,
       45.73608196
      ],
      [
       4.88928607,
       45.73590619
      ],
      [
       4.88935837,
       45.73581524
      ],
      [
       4.88943586,
       45.73565271
      ],
      [
       4.88950348,
       45.73546065
      ],
      [
       4.8895631,
       45.73508334
      ],
      [
       4.88957121,
       45.73495764
      ],
      [
       4.8895535,
       45.73474746
      ],
      [
       4.88950216,
       45.73454223
      ],
      [
       4.8893951,
       45.73429504
      ],
      [
       4.88914514,
       45.73388653
      ],
      [
       4.8887956,
       45.73330597
      ],
      [
       4.88864008,
       45.7330013
      ],
      [
       4.88853303,
       45.7327541
      ],
      [
       4.88834439,
       45.73220753
      ],
      [
       4.88820373,
       45.73179375
      ],
      [
       4.88807314,
       45.73155406
      ],
      [
       4.88794102,
       45.7313674
      ],
      [
       4.88745199,
       45.7307412
      ],
      [
       4.88695173,
       45.73008735
      ],
      [
       4.88681518,
       45.7298478
      ],
      [
       4.8867432,
       45.72966953
      ],
      [
       4.88672199,
       45.72955566
      ],
      [
       4.88671444,
       45.72939266
      ],
      [
       4.88676805,
       45.72874424
      ],
      [
       4.88717589,
       45.72431008
      ],
      [
       4.88722093,
       45.72382095
      ],
      [
       4.8872227,
       45.72373026
      ],
      [
       4.88720809,
       45.72332895
      ],
      [
       4.88718255,
       45.72286374
      ],
      [
       4.88714316,
       45.72265824
      ],
      [
       4.88691524,
       45.72207909
      ],
      [
       4.88682574,
       45.72186636
      ],
      [
       4.88678188,
       45.72170327
      ],
      [
       4.88678101,
       45.72150243
      ],
      [
       4.88680331,
       45.72135523
      ],
      [
       4.88685743,
       45.72116966
      ],
      [
       4.88692721,
       45.72098372
      ],
      [
       4.88714588,
       45.72048219
      ],
      [
       4.88762767,
       45.71935104
      ],
      [
       4.88779004,
       45.71898807
      ],
      [
       4.88782339,
       45.7188618
      ],
      [
       4.88784348,
       45.71872597
      ],
      [
       4.88784775,
       45.71837253
      ],
      [
       4.88786351,
       45.71748025
      ],
      [
       4.88787173,
       45.71695104
      ],
      [
       4.88792527,
       45.71645564
      ],
      [
       4.88805342,
       45.7153691
      ],
      [
       4.88810059,
       45.71480227
      ],
      [
       4.88814841,
       45.71422771
      ],
      [
       4.88816772,
       45.7138006
      ],
      [
       4.88815719,
       45.71339001
      ],
      [
       4.88814858,
       45.71321655
      ],
      [
       4.88811983,
       45.71288616
      ],
      [
       4.88803458,
       45.71232722
      ],
      [
       4.88794599,
       45.71193779
      ],
      [
       4.88772437,
       45.71106974
      ],
      [
       4.88762717,
       45.71068757
      ],
      [
       4.88747956,
       45.71008768
      ],
      [
       4.88737152,
       45.70964065
      ],
      [
       4.88723576,
       45.70909433
      ],
      [
       4.88719298,
       45.70885634
      ],
      [
       4.88718922,
       45.70867835
      ],
      [
       4.88719527,
       45.70851897
      ],
      [
       4.88721302,
       45.70837031
      ],
      [
       4.88726557,
       45.70815103
      ],
      [
       4.88731296,
       45.70800895
      ],
      [
       4.88735934,
       45.70790337
      ],
      [
       4.88743694,
       45.70775011
      ],
      [
       4.88768451,
       45.7073092
      ],
      [
       4.88786567,
       45.70699136
      ],
      [
       4.88795288,
       45.70677978
      ],
      [
       4.88797229,
       45.70668137
      ],
      [
       4.88799047,
       45.70655772
      ],
      [
       4.88799742,
       45.70645725
      ],
      [
       4.88800418,
       45.70563763
      ]
     ]
    ]
   }
  },
  {
   "type": "Feature",
   "properties": {
    "ligne": "D",
    "code_trace": "D-2",
    "nom_trace": "Gare de Vénissieux - Gare de Vaise",
    "sens": "Retour",
    "couleur_hex": "#009E3D"
   },
   "geometry": {
    "type": "MultiLineString",
    "coordinates": [
     [
      [
       4.88800418,
       45.70563763
      ],
      [
       4.88799742,
       45.70645725
      ],
      [
       4.88799047,
       45.70655772
      ],
      [
       4.88797229,
       45.70668137
      ],
      [
       4.88795288,
       45.70677978
      ],
      [
       4.88786567,
       45.70699136
      ],
      [
       4.88768451,
       45.7073092
      ],
      [
       4.88743694,
       45.70775011
      ],
      [
       4.88735934,
       45.70790337
      ],
      [
       4.88731296,
       45.70800895
      ],
      [
       4.88726557,
       45.70815103
      ],
      [
       4.88721302,
       45.70837031
      ],
      [
       4.88719527,
       45.70851897
      ],
      [
       4.88718922,
       45.70867835
      ],
      [
       4.88719298,
       45.70885634
      ],
      [
       4.88723576,
       45.70909433
      ],
      [
       4.88737152,
       45.70964065
      ],
      [
       4.88747956,
       45.71008768
      ],
      [
       4.88762717,
       45.71068757
      ],
      [
       4.88772437,
       45.71106974
      ],
      [
       4.88794599,
       45.71193779
      ],
      [
       4.88803458,
       45.71232722
      ],
      [
       4.88811983,
       45.71288616
      ],
      [
       4.88814858,
       45.71321655
      ],
      [
       4.88815719,
       45.71339001
      ],
      [
       4.88816772,
       45.7138006
      ],
      [
       4.88814841,
       45.71422771
      ],
      [
       4.88810059,
       45.71480227
      ],
      [
       4.88805342,
       45.7153691
      ],
      [
       4.88792527,
       45.71645564
      ],
      [
       4.88787173,
       45.71695104
      ],
      [
       4.88786351,
       45.71748025
      ],
      [
       4.88784775,
       45.71837253
      ],
      [
       4.88784348,
       45.71872597
      ],
      [
       4.88782339,
       45.7188618
      ],
      [
       4.88779004,
       45.71898807
      ],
      [
       4.88762767,
       45.71935104
      ],
      [
       4.88714588,
       45.72048219
      ],
      [
       4.88692721,
       45.72098372
      ],
      [
       4.88685743,
       45.72116966
      ],
      [
       4.88680331,
       45.72135523
      ],
      [
       4.88678101,
       45.72150243
      ],
      [
       4.88678188,
       45.72170327
      ],
      [
       4.88682574,
       45.72186636
      ],
      [
       4.88691524,
       45.72207909
      ],
      [
       4.88714316,
       45.72265824
      ],
      [
       4.88718255,
       45.72286374
      ],
      [
       4.88720809,
       45.72332895
      ],
      [
       4.8872227,
       45.72373026
      ],
      [
       4.88722093,
       45.72382095
      ],
      [
       4.88717589,
       45.72431008
      ],
      [
       4.88676805,
       45.72874424
      ],
      [
       4.88671444,
       45.72939266
      ],
      [
       4.88672199,
       45.72955566
      ],
      [
       4.8867432,
       45.72966953
      ],
      [
       4.88681518,
       45.7298478
      ],
      [
       4.88695173,
       45.73008735
      ],
      [
       4.88745199,
       45.7307412
      ],
      [
       4.88794102,
       45.7313674
      ],
      [
       4.88807314,
       45.73155406
      ],
      [
       4.88820373,
       45.73179375
      ],
      [
       4.88834439,
       45.73220753
      ],
      [
       4.88853303,
       45.7327541
      ],
      [
       4.88864008,
       45.7330013
      ],
      [
       4.8887956,
       45.73330597
      ],
      [
       4.88914514,
       45.73388653
      ],
      [
       4.8893951,
       45.73429504
      ],
      [
       4.88950216,
       45.73454223
      ],
      [
       4.8895535,
       45.73474746
      ],
      [
       4.88957121,
       45.73495764
      ],
      [
       4.8895631,
       45.73508334
      ],
      [
       4.88950348,
       45.73546065
      ],
      [
       4.88943586,
       45.73565271
      ],
      [
       4.88935837,
       45.73581524
      ],
      [
       4.88928607,
       45.73590619
      ],
      [
       4.88914968,
       45.73608196
      ],
      [
       4.8889541,
       45.73626503
      ],
      [
       4.8887818,
       45.73639994
      ],
      [
       4.88833146,
       45.73677337
      ],
      [
       4.88808574,
       45.73697544
      ],
      [
       4.88752558,
       45.73754785
      ],
      [
       4.88635728,
       45.73875925
      ],
      [
       4.88584584,
       45.73928291
      ],
      [
       4.88561929,
       45.73953217
      ],
      [
       4.88553027,
       45.73962946
      ],
      [
       4.88545795,
       45.73972041
      ],
      [
       4.88521088,
       45.74007731
      ],
      [
       4.88472824,
       45.74085634
      ],
      [
       4.88454416,
       45.74110463
      ],
      [
       4.88430883,
       45.74134813
      ],
      [
       4.88387321,
       45.74167358
      ],
      [
       4.88360854,
       45.74183439
      ],
      [
       4.88325864,
       45.74199119
      ],
      [
       4.88292354,
       45.74210001
      ],
      [
       4.88258732,
       45.74218504
      ],
      [
       4.88229221,
       45.74223936
      ],
      [
       4.88186173,
       45.74230867
      ],
      [
       4.88125369,
       45.74239986
      ],
      [
       4.88079744,
       45.74246379
      ],
      [
       4.88040998,
       45.74254402
      ],
      [
       4.87988853,
       45.74266896
      ],
      [
       4.87961095,
       45.74273479
      ],
      [
       4.8790673,
       45.74293168
      ],
      [
       4.87838144,
       45.74317942
      ],
      [
       4.87728646,
       45.74359122
      ],
      [
       4.87312615,
       45.74502497
      ],
      [
       4.87232267,
       45.7453051
      ],
      [
       4.86528228,
       45.7477324
      ],
      [
       4.8627203,
       45.74861174
      ],
      [
       4.86059401,
       45.74935023
      ],
      [
       4.85597208,
       45.7509366
      ],
      [
       4.85377873,
       45.75170028
      ],
      [
       4.85057166,
       45.75280219
      ],
      [
       4.84795081,
       45.75370631
      ],
      [
       4.84373003,
       45.7551522
      ],
      [
       4.84138557,
       45.75596664
      ],
      [
       4.84107443,
       45.75604503
      ],
      [
       4.84080469,
       45.75609868
      ],
      [
       4.84050865,
       45.75613505
      ],
      [
       4.84021206,
       45.75615953
      ],
      [
       4.83995661,
       45.75615331
      ],
      [
       4.83970089,
       45.75614116
      ],
      [
       4.83941037,
       45.75611191
      ],
      [
       4.83919659,
       45.75608691
      ],
      [
       4.83867475,
       45.75602114
      ],
      [
       4.83814497,
       45.75596745
      ],
      [
       4.83684396,
       45.75578805
      ],
      [
       4.83632429,
       45.75576985
      ],
      [
       4.83583228,
       45.75579867
      ],
      [
       4.83528457,
       45.75591208
      ],
      [
       4.83483113,
       45.75604125
      ],
      [
       4.83431566,
       45.75630278
      ],
      [
       4.83401867,
       45.75650587
      ],
      [
       4.83370874,
       45.75679855
      ],
      [
       4.83323453,
       45.75721992
      ],
      [
       4.83288426,
       45.75756112
      ],
      [
       4.83271256,
       45.75771379
      ],
      [
       4.83254855,
       45.75784842
      ],
      [
       4.83239196,
       45.75795907
      ],
      [
       4.83156407,
       45.75845974
      ],
      [
       4.83003168,
       45.75936901
      ],
      [
       4.82955702,
       45.75959389
      ],
      [
       4.82904648,
       45.75977789
      ],
      [
       4.82857627,
       45.75991336
      ],
      [
       4.82804442,
       45.76000257
      ],
      [
       4.82726667,
       45.76010913
      ],
      [
       4.82678137,
       45.76018916
      ],
      [
       4.8264668,
       45.76023487
      ],
      [
       4.82460165,
       45.76050557
      ],
      [
       4.82366697,
       45.76064586
      ],
      [
       4.82241695,
       45.76083582
      ],
      [
       4.82113393,
       45.76106011
      ],
      [
       4.82034233,
       45.76123302
      ],
      [
       4.81987074,
       45.76133871
      ],
      [
       4.81942492,
       45.76144979
      ],
      [
       4.8186347,
       45.76165779
      ],
      [
       4.81491458,
       45.76272831
      ],
      [
       4.81215984,
       45.76351546
      ],
      [
       4.80979167,
       45.76419876
      ],
      [
       4.80679354,
       45.76506258
      ],
      [
       4.80639945,
       45.76519032
      ],
      [
       4.80619949,
       45.76528403
      ],
      [
       4.8060014,
       45.76541937
      ],
      [
       4.8058296,
       45.765572
      ],
      [
       4.80570906,
       45.76572945
      ],
      [
       4.8055835,
       45.76596441
      ],
      [
       4.80553121,
       45.76612631
      ],
      [
       4.80547871,
       45.76647279
      ],
      [
       4.80537454,
       45.76737411
      ],
      [
       4.80533586,
       45.76783936
      ],
      [
       4.8053513,
       45.76799382
      ],
      [
       4.80536915,
       45.76820181
      ],
      [
       4.80552199,
       45.76876407
      ],
      [
       4.8055571,
       45.76897764
      ],
      [
       4.80556804,
       45.7692215
      ],
      [
       4.80554664,
       45.76969233
      ],
      [
       4.80550253,
       45.77079476
      ],
      [
       4.80544606,
       45.77124254
      ],
      [
       4.80540552,
       45.77166616
      ],
      [
       4.80535754,
       45.77211375
      ],
      [
       4.80529604,
       45.77306212
      ],
      [
       4.80528931,
       45.77343701
      ],
      [
       4.80534097,
       45.77401935
      ],
      [
       4.80536317,
       45.77470355
      ],
      [
       4.80535351,
       45.77543609
      ],
      [
       4.80533152,
       45.7757045
      ],
      [
       4.80528296,
       45.77594967
      ],
      [
       4.8051895,
       45.77614225
      ],
      [
       4.80512791,
       45.7762865
      ],
      [
       4.80500664,
       45.77643487
      ],
      [
       4.80479568,
       45.77665699
      ],
      [
       4.80456541,
       45.77683471
      ],
      [
       4.80418427,
       45.77706338
      ],
      [
       4.80391866,
       45.7772121
      ],
      [
       4.80349821,
       45.77751308
      ],
      [
       4.8033208,
       45.77773132
      ],
      [
       4.80314527,
       45.77799119
      ],
      [
       4.80301889,
       45.77839883
      ],
      [
       4.80302003,
       45.77880366
      ],
      [
       4.80313858,
       45.7791702
      ],
      [
       4.80336737,
       45.77952836
      ],
      [
       4.80397477,
       45.78016994
      ],
      [
       4.80444772,
       45.7806884
      ]
     ]
    ]
   }
  }
 ]
}
